Domain,country,region,city,postcode,road,house_number,Addresses
sk4designs.com,[''],['co'],['telluride'],['81435'],[''],[''],"['15 SHOP PO BOX 3411 TELLURIDE, CO 81435']"
wyandottewinery.com,[''],['ohio'],['columbus'],['43230'],['wyandotte dr'],['4640'],"['4640 Wyandotte Dr Columbus, Ohio 43230']"
umbrawindowtinting.com,"['', '']","['il', 'il']","['schaumburg', 'glendale heights']","['60195', '60139']","['811 w higgins rd # b', 'bloomingdale rd']","['1869', '2021']","['1869 811 W Higgins Rd # B, Schaumburg, IL 60195', '2021 Bloomingdale Rd, Glendale Heights, IL 60139']"
embcmonroe.org,"['', '']","['nc', 'nc']","['monroe', 'monroe']","['28112', '28112']","['maurice st.', 'maurice street']","['503', '503']","['10am 503 Maurice St. Monroe, NC 28112', '503 Maurice Street Monroe, NC 28112']"
triplecrownconstruction.com,[''],['md'],['frederick'],['21704'],['tilco drive'],['1525'],"['1525 Tilco Drive, Unit B-1, Frederick, MD 21704']"
dillonmusic.com,"['', '', '']","['nj', '', 'nj']","['woodbridge', '', 'streetwoodbridge']","['07095', 'y2201279', '07095']","['325 fulton street', '0', 'fulton']","['634-3399', 'sn', '325']","['634-3399 325 Fulton Street, Woodbridge, NJ 07095', '0 SN: Y2201279', '325 Fulton StreetWoodbridge, NJ 07095']"
neutresalon.com,[''],['md'],['frederick'],['21701'],['s market street'],['101'],"['101 S Market Street Frederick, MD 21701']"
paramountlandtitle.com,[''],['tn'],['knoxville'],['37923'],['sony lane'],['8904'],"['288-0177 \ue0178904 Sony Lane, Knoxville, TN 37923']"
seedsourceag.com,[''],['ne'],['waywayne'],['68787'],['chiefs'],['1610'],"['1610 Chiefs WayWayne, Ne 68787']"
richardbrothersfinancial.com,[''],['maine'],['south portland'],['04106'],[''],['1'],"['1 South Portland, Maine 04106']"
allmakeappliancerepair.com,"['', '']","['', '']","['', '']","['', '']","['m t w t f s s 1234567 8910', '15161718192021']","['11121314', '22232425262728']","['38193964', '2024 M T W T F S S 1234567 891011121314', '15161718192021 22232425262728']"
searchouthomes.com,[''],['idaho'],['meridian'],['83642'],[''],['100'],"['100 Meridian, Idaho 83642']"
twinpondsnashua.com,[''],['nh'],['nashua'],['03062'],['spit brook rd'],['105'],"['105 Spit Brook Rd, Nashua, NH 03062']"
societyfortheblind.org,[''],['ca'],['sacramento'],['95811'],['s street'],['1238'],"['1238 S Street Sacramento, CA 95811']"
cabwhp.org,[''],['ca'],[''],['90301'],[''],[''],"['905Inglewood, CA 90301']"
ohnstadlaw.com,"['', '', '', '', '']","['nd', 'nd', 'nd', 'nd', '']","['fargo', '', '', '', '']","['58078', '58045', '58012', '58348', '58064']","['', '', 'front streetp.o. box', 'central avesuite', 'morton avepage nd']","['444', '', '746', '105', '116']","['444 Sheyenne StreetSuite 102West Fargo, ND 58078', '220Hillsboro, ND 58045', '746 Front StreetP.O. Box 308Casselton, ND 58012', '105 Central AveSuite 127Maddock, ND 58348', '116 Morton AvePage, ND 58064']"
seniorcareagencyny.com,[''],['ny'],['levittown'],['11756'],[''],['203'],"['203 Levittown, NY 11756']"
your-doctor.org,[],[],[],[],[],[],"['106, 70736', '00421/4323048', '00421/4323048', '106DE-70736', '421432304871']"
stmatthewmedina.org,[''],['ohio'],['medina'],['44256'],['n. broadway street'],['400'],"['400 N. Broadway Street, Medina, Ohio 44256']"
kiddsmith.com,"['', '']","['sc', 'sc']","['boiling springs', 'boiling springs']","['29316', '29316']","['riviera drive', 'riviera drive']","['117', '117']","['117 Riviera Drive Boiling Springs, SC 29316', '117 Riviera Drive Boiling Springs, SC 29316']"
jackiescleaning.com,[''],['me'],['lewiston'],['04240'],['crowley rd'],['116'],"['0632 Address: 116 Crowley Rd, Lewiston, ME 04240']"
atlanticbeach-nc.com,[''],['nc'],['atlantic beach'],['28512'],['west fort macon rd'],['125'],"['125 West Fort Macon Rd Atlantic Beach, NC 28512']"
fcllp.com,"['', '']","['ny', 'ct']","['new york', 'new haven']","['10022', '06510']","['lexington avenue', 'elm street']","['570', '59']","['644.4420 570 Lexington Avenue New York, NY 10022', '212.644.4420 59 Elm Street New Haven, CT 06510']"
gopremier.biz,[''],['tx'],['plano'],['75074'],['e plano pkwy'],['3001'],"['3001 E Plano Pkwy Ste 200 Plano, TX 75074']"
rockvilledwiattorney.com,[],[],[],[],[],[],['020-31800171']
bentsoninsurance.net,"['', '', '']","['ny', 'ny', 'ny']","['', '', '']","['10310', '10310', '10310']","['653 forest ave', 'forest ave', 'forest ave']","['442-1771', '653', '653']","['442-1771 653 Forest Ave, Staten Island NY 10310', '653 Forest Ave, Staten Island NY 10310', '653 Forest Ave, Staten Island NY 10310']"
allenvillagejewelers.com,"['', '', '']","['tx', '', 'tx']","['allen', '', 'allen']","['75002', '', '75002']","['e stacy rd', '972) 678-4521', '']","['190', '190', '206']","['190 E Stacy Rd #206, Allen, TX 75002', '972) 678-4521190', '206, Allen, TX 75002']"
unitedairconditioning.com,[''],['fl'],['largo'],['33773'],['s belcher rd'],['13150'],"['13150 S Belcher Rd Largo, FL 33773', '727) 314-7408 License #CAC027356']"
achieveservices.net,[''],['ga'],['atlanta'],['30339'],['parkwood circle se'],['1000'],"['1000 Parkwood Circle SE STE 900 Atlanta, GA 30339']"
panniergraphics.com,"['', '']","['pa', 'pa']","['gibsonia', 'gibsonia']","['15044', '15044']","['oak road', 'oak road']","['345', '345']","['345 Oak Road, Gibsonia, PA 15044', '345 Oak Road Gibsonia, PA 15044']"
hennejewelers.com,[''],[''],[''],[''],['walnut streetpittsburgh pa 15232412'],['5501'],"['5501 Walnut StreetPittsburgh, PA 15232412']"
appwinit.com,[''],['ny'],['new york'],['10001'],['broadway.'],['1239'],"['2024 Winit LLC, 1239 Broadway. New York, NY 10001']"
thegrindcoffeebar.com,[],[],[],[],[],[],['33626813']
artofthelakes.org,[''],['mn'],['battle lake'],['56515'],[''],['244'],"['244, Battle Lake, MN 56515']"
aaronsantosdentistry.com,"['', '', '']","['ca', 'ca', 'ca']","['los gatos', 'los gatos', 'los gatos']","['95032', '95032', '95032']","['south bascom ave', 's bascom ave', 'south bascom ave']","['14529', '14529', '14529']","['14529 South Bascom Ave Los Gatos, CA 95032', '14529 S Bascom Ave, Los Gatos, CA 95032', '14529 South Bascom Ave, Los Gatos, CA 95032']"
vahcbsa.org,"['', '']","['virginia', 'virginia']","['staunton', 'staunton']","['24401', '24401']","['greenville avenue', 'greenville avenue']","['617', '617']","['617 Greenville Avenue, Staunton, Virginia 24401', '617 Greenville Avenue Staunton, Virginia 24401']"
roensalvage.com,[''],['wi'],['sturgeon bay'],['54235'],['e redwood st •'],['180'],"['180 E Redwood St • Sturgeon Bay, WI 54235']"
trinityrentals.com,[''],['tx'],['weatherford'],['76086'],['s main st'],['300'],"['300 S Main St, Weatherford, TX 76086']"
millerindustrial.com,[''],['il'],['elk grove village'],['60007'],['e. devon ave'],['621'],"['621 E. Devon Ave, Elk Grove Village, IL 60007']"
teamsunbuilders.com,[''],['ca'],['rancho mirage'],['92270'],[''],[''],"['760-469-998940101', '1 #324 Rancho Mirage, CA 92270']"
onlinemarketingmuscle.com,[''],['sc'],[''],['29607'],[''],[''],"['200Greenville, SC 29607']"
enidmad.org,[''],['ok'],['enid'],['73701'],['n. university ave.'],['129'],"['129 N. University Ave. Enid, OK 73701']"
fresnogreekfest.com,[''],['ca'],['stfresno'],['93703'],['n. orchard'],['2219'],"['559) 233-03972219 N. Orchard StFresno, CA 93703']"
gipreit.com,[''],['fl'],['tampa'],['33602'],['e jackson st'],['401'],"['401 E Jackson St Ste 3300 Tampa, FL 33602']"
goldridgecompanies.com,"['', '', '', '', '', '']","['wi', 'wi', 'wi', 'wi', 'wi', 'wi']","['eau claire', 'eau claire', 'rice lake', 'eau claire', 'chippewa falls', 'mondovi']","['54703', '54701', '54868', '54701', '54729', '54755']","['north clairemont avenue', 'highland avenue', 'main street', 'pinnacle way', 'chippewa mall drive', 'east main street']","['2713', '2221', '2460-2500a', '310', '475', '695-699']","['2713 North Clairemont Avenue Eau Claire, WI 54703', '2221 Highland Avenue Eau Claire, WI 54701', '2460-2500A Main Street Rice Lake, WI 54868', '310 Pinnacle Way Eau Claire, WI 54701', '475 Chippewa Mall Drive Chippewa Falls, WI 54729', '695-699 East Main Street Mondovi, WI 54755']"
able-plumbing.net,[],[],[],[],[],[],['4633048555427916533']
wickedislandbakery.com,[''],['ma'],['nantucket'],['02554'],['bayberry court'],['7 b'],"['7 B BAYBERRY COURT NANTUCKET, MA 02554']"
floridaorchestra.org,[''],['fl'],['petersburg'],['33701'],['420st'],[''],"['420St. Petersburg, FL 33701']"
tmgi.net,[''],['va'],['sterling'],['20165'],['240'],[''],"['240 Sterling, VA 20165']"
fott.org,[''],['fl'],['plantation'],['33317'],['sw 54 avenue'],['1300'],"['1300 SW 54 Avenue, Plantation, FL 33317']"
sczc.org,[''],['ca'],['santa cruz'],['95060'],['school street'],['113'],"['113 School Street, Santa Cruz, CA 95060']"
devact.com,[''],['nc'],['charlotte'],['28207'],['queens road'],['438'],"['438 Queens Road Charlotte, NC 28207']"
chcseia.com,"['', '', '', '', '', '', '']","['il', 'ia', 'ia', 'ia', 'ia', 'iowa', 'ia']","['hamilton', 'keokuk', 'keokuk', 'columbus city', 'west burlington', 'burlington', 'west burlington']","['62341', '52632', '52632', '52737', '52655', '52601', '52655']","['broadway street', 'north 17th street', 'main street', 'spring street', 'west agency road', 's. broadway street', 'west agency road']","['951', '400', '1618', '2409', '1706', '400', '1706']","['951 Broadway Street Hamilton, IL 62341', '400 North 17th Street Keokuk, IA 52632', '1618 Main Street Keokuk, IA 52632', '2409 Spring Street Columbus City, IA 52737', '1706 West Agency Road West Burlington, IA 52655', '400 S. Broadway Street Burlington, Iowa 52601', '1706 West Agency Road West Burlington, IA 52655']"
royersford.com,"['', '']","['pa', 'pa']","['phoenixville', 'royersford']","['19460', '19468']","['township line rd.', '']","['835', '190']","['835 Township Line Rd. Phoenixville, PA 19460', '190 Royersford, PA 19468']"
maguirechevroletcadillac.com,"['', '', '', '']","['ny', 'ny', 'ny', 'ny']","['ithaca', 'ithaca', 'ithaca', 'ithaca']","['14850', '14850', '14850', '14850']","['35 cinema dr', '', 'cinema dr', 'dr']","['9292', '', '35', '']","['9292 35 Cinema Dr Directions Ithaca, NY 14850', '35 Cinema Dr Directions Ithaca, NY 14850', '35 Cinema Dr Ithaca, NY 14850', '9292 Visit us at: 35 Cinema Dr Ithaca, NY 14850']"
endries.com,['usa'],['wisconsin'],['brillion'],['54110'],[''],['69'],"['69 Brillion, Wisconsin USA 54110']"
biblebee.org,[],[],[],[],[],[],['2019/01/17145816']
raymondkeyandsons.com,[''],['va'],['chesapeake'],['23325'],['tanglewood trail'],['4014'],"['4014 Tanglewood Trail Chesapeake, VA 23325']"
clovispointsolutions.com,[''],['va'],['reston'],['20191'],['lake chapel lane'],['11169'],"['11169 Lake Chapel Lane, Reston, VA 20191']"
stmindustries.com,[''],['fl'],['tampa'],['33624'],['n trask st.'],['9524'],"['9524 N Trask St. Tampa, FL 33624']"
andersrice.com,"['', '']","['nc', '']","['asheville', '']","['28806', '']","['patton avenue', '828) 254-3511']","['1428', '1428']","['1428 Patton Avenue Asheville, NC 28806', '828) 254-35111428']"
eyewitnessforlife.org,[''],['wi'],['wauwatosa'],['53226'],['n mayfair rd'],['2525'],"['2525 N Mayfair Rd, Suite 30, Wauwatosa, WI 53226']"
wayco.com,"['', '']","['ca', '']","['temecula', '']","['92589', '']","['', 'ca license']","['89-1630', '#0697216']","['89-1630 Temecula, CA 92589', '951-699-6000 CA License #0697216']"
sjcadets.org,[''],['connecticut'],['trumbull'],['06611'],['huntington tpke'],['2320'],"['2320 Huntington Tpke Trumbull, Connecticut 06611']"
alwaysmovingandrelocation.org,[],[],[],[],[],[],['20+Years Of Moving Experience18000']
youthchallengesports.com,"['', '', '']","['oh', 'oh', 'oh']","['cleveland', 'cleveland', 'westlake']","['44135', '44109', '44145']","['brookpark rd', 'wildlife way', 'sharon drive']","['20920', '3900', '800']","['20920 Brookpark Rd, Cleveland, OH 44135', '3900 Wildlife Way, Cleveland, OH 44109', '440-892-1001 800 Sharon Drive Westlake, OH 44145']"
indilab.com,[''],[''],[''],['13485'],['info@indilab.com 1.800.441.5000 iso'],['60131'],['60131 info@indilab.com 1.800.441.5000 ISO 13485']
thecharlescompany.com,"['', '']","['az', 'az']","['sun lakes', 'sun lakes']","['85248', '85248']","['9666 e riggs rd', 'e riggs rd']","['2105', '9666']","['2105 9666 E Riggs Rd, #136 Sun Lakes, AZ 85248', '9666 E Riggs Rd #136, Sun Lakes, AZ 85248']"
ksafe.com,"['', '']","['la', 'la']","['baker', 'baker']","['70714', '70704']","['main street', '']","['1618', '648']","['1618 Main Street Baker, LA 70714', '648 Baker, LA 70704']"
acflagandbanner.com,[''],['co'],['littleton'],['80127'],['shaffer pl'],['11616'],['11616 Shaffer Pl Unit S-103 Littleton CO 80127']
bridge.legal,[''],['wa'],['seattle'],['98121'],['lenora street'],['300'],"['300 Lenora Street #521, Seattle, WA 98121']"
tacticalmuscle.com,[''],['tx'],['garland'],['75041'],['w centerville rd'],['1015'],"['1015 W CENTERVILLE RD STE 105, GARLAND TX 75041']"
lnrothberg.com,"['', '']","['nj', 'nj']","['middlesex', 'middlesex']","['08846', '08846']","['', '']","['550', '550']","['550 Middlesex, NJ 08846', '550 Middlesex, NJ 08846']"
gandwengineering.com,[''],['mo'],['maryland heights'],['63043'],['weldon parkway'],['138'],"['138 Weldon Parkway Maryland Heights, MO 63043']"
airspaceconsulting.com,[''],['ca'],['carlsbad'],['92008'],[''],['219'],"['219, Carlsbad, CA, 92008']"
forestrylaw.com,[''],['ny'],['buffalo'],['14202'],['fountain plaza'],['12'],"['12 Fountain Plaza Suite 600 Buffalo, NY 14202']"
christsmission.org,[''],['il'],['rd.manhattan'],['60442'],['s. cedar'],['22811'],"['22811 S. Cedar Rd.Manhattan, IL 60442']"
casaallegra.org,[''],['ca'],['san rafael'],['94903'],['mitchell blvd.'],['35'],"['35 Mitchell Blvd. Suite 8 San Rafael, CA 94903']"
athensgop.com,"['', '']","['', 'ga']","['athens', 'athens']","['30606', '30603']","['old epps bridge road', '']","['236', '']","['236 Old Epps Bridge Road, Athens 30606', '1911, Athens, GA 30603']"
brmins.com,"['', '']","['ca', 'ca']","['alamo', 'alamo']","['94507', '94507']","['alamo plaza.', 'alamo plaza.']","['160', '160']","['160 Alamo Plaza. Unit 1239 Alamo, CA 94507', '160 Alamo Plaza. Unit 1239 Alamo, CA 94507', '0468252 | AZ: License #156745', '100159697 | WA: License #110464', '17357 | CO: License #265733', '1627903 | FL: License #L086593', '616093 | GA: License #181223']"
cybersofttechnologies.com,[''],['md'],['lanham'],['20706'],[''],['200'],"['200 Lanham, MD 20706']"
emilyseventsaz.com,[''],['az'],['scottsdale'],['85260'],['e redfield rd'],['7625'],"['7625 E Redfield Rd Suite 130 Scottsdale, AZ 85260']"
tsaworld.com,"['', '']","['ga', 'ga']","['peachtree corners', 'peachtree corners']","['30071', '30071']","['adriatic ct.', 'adriatic ct.']","['3011-b', '3011-b']","['3011-B Adriatic Ct. Peachtree Corners, GA 30071', '3011-B Adriatic Ct. Peachtree Corners, GA 30071']"
lotussalonny.com,[],[],[],[],[],[],['050081 电话：0311-85333755招生热线：0311-85333630']
westcoastseafood.com,[''],['ca'],['simi valley'],['93065'],['e los angeles ave'],['2814'],['2814 E Los Angeles Ave Simi Valley CA 93065']
grablerealestate.com,[''],['texas'],['fort worth'],['76107'],[''],['325'],"['325, Fort Worth, Texas 76107']"
rossmoncure.com,"['', '', '', '']","['va', '', 'va', '']","['alexandria', '', 'alexandria', '']","['22314', '', '22314', '']","['north washington street', 'au +61 (0)2 8317 32516', 'north washington street', 'au +61 (0)2 8317 32516']","['726', '44 0 20-3769-2522', '726', '44 0 20-3769-2522']","['726 North Washington Street Alexandria, VA 22314', '44 (0) 20-3769-2522 AU +61 (0)2 8317 32516', '726 North Washington Street Alexandria, VA 22314', '44 (0) 20-3769-2522 AU +61 (0)2 8317 32516']"
tatankastone.com,[''],['nebraska'],['omaha'],['68144'],['a st'],['13525'],"['13525 A St, Omaha, Nebraska 68144']"
heavenlysunshine.com,[''],['ms'],['southaven'],['38671'],['southview street'],['9170'],"['9170 Southview Street, Southaven, MS 38671']"
kaleabay.com,[''],['fl'],['naples'],['34110'],['old coast rd.'],['13910'],"['13910 Old Coast Rd. Naples, FL 34110', '400 September 20, 2023 VISIT US 13910']"
corpimprints.com,[''],['co'],['denver'],['80223'],['lipan st'],['55'],"['55 Lipan St Denver, CO 80223']"
enhancedlandscape.com,"['', '', '']","['ca', '', '']","['valencia', '', '']","['91355', '', '']","['witherspoon parkway', 'd49', 'cal']","['28447', '#1098153', '1098153']","['28447 Witherspoon Parkway Valencia, CA 91355', '450067 CA License C27, D49 #1098153', '0084986', '10 license (for Nevada) For ELM: Cal 1098153']"
tristatecontainer.com,"['', '']","['pa', 'pa']","['bensalem', 'bensalem']","['18020', '18020']","['bridgewater rd.', 'state rd.']","['1440', '2260']","['1440 Bridgewater Rd. Bensalem, PA 18020', '2260 State Rd. Bensalem, PA 18020']"
naceyes.com,[''],['tx'],['nacogdoches'],['75965'],['n. university drive'],['3208'],"['3208 N. University Drive Nacogdoches, TX 75965']"
postermuseum.com,[''],['ny'],['new york'],['10007'],['chambers st.'],['122'],"['122 Chambers St. New York, NY 10007']"
advnetsol.com,"['', '', '']","['ca', 'ca', 'ca']","['bakersfield', 'bakersfield', 'bakersfield']","['93301', '93301', '93301']","['f st.', 'f st.', 'f st.']","['1527', '1527', '1527']","['1527 F St. Bakersfield, CA 93301', '1527 F St. Bakersfield, CA 93301', '1527 F St. Bakersfield, CA 93301']"
dynamichealthcarolinas.com,[''],['nc'],['charlotte'],['28217'],['south blvd.'],['4705'],"['4705 South Blvd. Charlotte, NC 28217']"
wisr.edu,[''],['ca'],['berkeley'],['94707'],['san pedro ave.'],['1812'],"['1812 San Pedro Ave., Berkeley, CA, 94707']"
ncc.us,"['', '']","['il', 'il']","['oak brook', 'oak brook']","['60523', '60523']","['commerce drive', 'commerce dr.']","['815', '815']","['2055994', '815 Commerce Drive Suite 270 Oak Brook, IL 60523', '815 Commerce Dr. Suite 270 Oak Brook, IL 60523', '1057803']"
thedevoregroup.com,[''],['pa'],['fairview'],['16415'],['old ridge road'],['7101'],"['7101 Old Ridge Road, Fairview, PA 16415']"
tripeek.com,[''],['ca'],['escondido'],['92033'],[''],['952'],"['952 Escondido, CA 92033']"
treehill.org,[''],['fl'],['jacksonville'],['32211'],['lone star road'],['7152'],['7152 Lone Star Road Jacksonville FL 32211']
wargoenterprises.com,"['', '']","['ca', 'ca']","['', 'millbrae']","['94030', '94030650']","['', '']","['', '390']","['390Millbrae, CA 94030', '390, Millbrae, CA 94030650']"
bayareaturf.net,"['', '']","['ca', 'ca']","['livermore', 'burlingame']","['94551', '94010']","['nissen drive', 'airport blvd.no.']","['2310', '400']","['2310 Nissen Drive Livermore, CA 94551', '533 Airport Blvd.No. 400 Burlingame, CA 94010']"
milwaukee-montessori.org,[''],['wi'],['milwaukee'],['53226'],['n 95th st'],['345'],"['345 N 95th St, Milwaukee, WI 53226']"
spifunds.com,[''],['nj'],['summit'],['07901'],['maple street'],['47'],"['47 Maple Street, Suite 103 Summit, NJ 07901']"
sterlingridingacademy.com,"['', '']","['ca.', 'ca.']","['woodland', 'woodland']","['95776530', '95776530']","['county road 102', 'county road 102']","['22444', '22444']","['22444 County Road 102, Woodland, CA. 95776530', '22444 County Road 102, Woodland, CA. 95776530']"
have2020.com,"['', '', '', '']","['in', 'in', 'in', 'in']","['jeffersonville', 'jeffersonville', 'jeffersonville', 'jeffersonville']","['47130', '47130', '47130', '47130']","['', '', '', '']","['100a', '100b', '100a', '100b']","['100A Jeffersonville, IN 47130', '100B Jeffersonville, IN 47130', '100A Jeffersonville, IN 47130', '100B Jeffersonville, IN 47130']"
bestnapleshomesearch.com,[''],['fl'],[''],['34109'],['pine ridge rd #1naples'],['777-2966 1495'],"['777-2966 1495 Pine Ridge Rd #1Naples, FL 34109']"
northparkpres.org,[''],['tx'],['dallas'],['75231'],['n central expy'],['9555'],"['9555 N Central Expy Dallas, TX 75231']"
platformq.com,[''],['ma'],['needham'],['02494'],['crescent road'],['100'],"['100 Crescent Road Needham, MA 02494']"
cannabis-seed.us,['usa'],['az'],['city'],['86429'],['az-95 bulllhead'],['1000'],"['1000 AZ-95, BULLLHEAD CITY, AZ, USA, 86429']"
kapitalelectric.com,"['', '']","['il', 'il']","['bensenville', 'bensenville']","['60106', '60106']","['mark st', 'mark st']","['1270', '1270']","['1270 Mark St Bensenville, IL 60106', '1270 Mark St Bensenville, IL 60106']"
jandrcustomwalls.com,[],[],[],[],[],[],['323-1473Free Estimates CSLB# 922562']
wildlifeart.org,[''],['wy'],['jackson'],['83001'],['rungius rd'],['2820'],"['2820 Rungius Rd, Jackson, WY 83001']"
crownpaintinginc.com,"['', '', '']","['ca', 'nv', '']","['modesto', 'reno', '']","['95356', '89502', '4876']","['galaxy way', 'riggins court', 'ca lic']","['641', '5390', '#714310']","['641 Galaxy Way Modesto, CA 95356', '5390 Riggins Court Ste A, Reno, NV 89502', '4876 © 2024 CROWN PAINTING INC. CA LIC #714310']"
mattressplus.tv,[''],['louisiana'],['shreveport'],['71105'],['youree drive'],['3964'],"['3964 Youree Drive Shreveport, Louisiana 71105']"
vitalizechiropractic.com,[''],['il'],['swansea'],['62226'],['benchmark centre'],['4980'],"['4980 Benchmark Centre Swansea, IL 62226']"
terradynecountryclub.com,[''],['ks'],['andover'],['67002'],['terradyne drive'],['1400'],"['1400 Terradyne Drive, Andover, KS 67002']"
cbssquaredinc.com,[''],['mn'],[''],['55413'],[''],[''],"['415Minneapolis, MN 55413']"
stgcom.com,[''],['oh'],['ave.columbiana'],['44408'],['wardingley'],['1401'],"['1401 Wardingley Ave.Columbiana, OH 44408']"
cincinnatifleetcare.com,[''],['oh'],['chester'],['45246'],['commerce park drwest'],['10000'],"['10000 Commerce Park DrWest Chester, OH 45246']"
apieceofcake11.com,[''],['nj'],['cape may court house'],['08210'],['u.s. 9'],['709'],"['709 U.S. 9, Cape May Court House, NJ 08210']"
portcitygraphics.com,[''],['me'],['gorham'],['04038'],['main street'],['664'],"['664 Main Street, Gorham, ME, 04038']"
entosdesign.com,"['', '']","['', '']","['', '']","['', '']","['dallas texas', 'dallas texas']","['75240972', '75240972']","['125, Dallas, Texas 75240972', '125 DALLAS, TEXAS 75240972']"
icscomplete.com,[],[],[],[],[],[],"['7 id=”16000', '7 id=”16080', '7 id=”16083']"
ekeepersystems.com,"['', '']","['in', 'in']","['yorktown', 'muncie']","['47396', '47307']","['w kilgore ave', '']","['7701', '']","['7701 W Kilgore Ave Suite 1B Yorktown, IN 47396', '3294 Muncie, IN 47307']"
harnesswealth.com,[''],['ny'],['new york'],['10013'],[''],[''],"['13 New York, NY 10013']"
adsdry.com,"['', '', '']","['', 'fl', 'fl']","['', 'tampa', 'tampa']","['12094', '33625', '33625']","['fax +1(813) 354-4589 address', '', '']","['898-0699', '330', '330']","['898-0699 Fax: +1(813) 354-4589 Address: 12094', '330, Tampa, FL 33625', '3 + 3 = Contact Us Contact us \ue01d 12094', '330 Tampa, FL 33625']"
scottyshubcaps.com,[''],[''],[''],[''],['mercury item'],['# 32-17076'],['8-1/4 -Mercury ITEM # 32-17076']
merrickgroupinc.com,"['', '']","['pa', 'nc']","['west hazleton', 'denver']","['18202', '28037']","['100 unico drive', 'commerce drive']","['455-5787', '7822']","['455-5787 100 Unico Drive West Hazleton, PA 18202', '7822 Commerce Drive Denver, NC 28037']"
seniorvillagerehab.com,[''],['la'],['opelousas'],['70570'],['harry guilbeau road'],['315'],"['315 Harry Guilbeau Road, Opelousas, LA 70570']"
ossininglibrary.org,[''],['ny'],['ossining'],['10562'],['croton avenue'],['53'],"['53 Croton Avenue Ossining, NY 10562']"
frontdoorstl.com,[''],['mo'],['st. louis'],['63110'],['manchester ave'],['4240'],"['4240 Manchester Ave, St. Louis MO 63110']"
masterrenovationsinc.com,"['', '']","['oh', 'oh']","['eastorrville', 'orrville']","['44667', '446671']","['old lincoln way', 'old lincoln way east']","['10718', '10718']","['10718 Old Lincoln Way EastOrrville, OH 44667', '10718 Old Lincoln Way East, Orrville, OH 446671']"
inetmotors.com,[''],['tx'],['branch'],['75234'],['villa creek drivefarmers'],['2695'],"['512-213-11522695', '2695 Villa Creek DriveFarmers Branch, TX 75234']"
urbanacres.com,"['', '', '', '', '', '', '', '', '', '', '', '', '']","['iowa', 'iowa', 'iowa', 'iowa', 'iowa', 'iowa', 'iowa', 'iowa', 'iowa', 'iowa', 'iowa', 'ia', 'ia']","['coralville', 'coralville', 'iowa city', 'iowa city', 'hills', 'iowa city', 'coralville', 'coralville', 'coralville', 'coralville', 'iowa city', 'rdcoralville', 'rdcoralville']","['52241', '52241', '52240', '52245', '52235', '52240', '52241', '52241', '52241', '52241', '52245', '52241', '52241']","['lynncrest cir', '12th ave', 'bradford dr', '113 post rd', '436 brady st', 'keokuk st.', 'holderness rd', 'holderness rd', 'holderness rd', 'holderness rd', '260 n scott blvd #202', 'holiday', 'holiday']","['375,000 1', '230,000 1716', '289,900 2916', '380,000', '239,900', '235,000 1405', '900', '900', '900', '900', '000', '250', '250']","['375,000 1 Lynncrest Cir, Coralville, Iowa 52241', '230,000 1716 12th Ave, Coralville, Iowa 52241', '289,900 2916 Bradford Dr, Iowa City, Iowa 52240', '340 $380,000 113 Post Rd, Iowa City, Iowa 52245', '2,336 $239,900 436 Brady St, Hills, Iowa 52235', '235,000 1405 Keokuk St., Iowa City, Iowa 52240', '900 3423 Holderness Rd, Coralville, Iowa 52241', '900 3421 Holderness Rd, Coralville, Iowa 52241', '900 3411 Holderness Rd, Coralville, Iowa 52241', '900 3409 Holderness Rd, Coralville, Iowa 52241', '000 260 N SCOTT BLVD #202, Iowa City, Iowa 52245', '250 Holiday RdCoralville, IA 52241', '250 Holiday RdCoralville, IA 52241']"
patiocomforts.com,[],[],[],[],[],[],"['2001512', '259.99 Solaira Plug In Cosy Heater SCOSY15120', '494-5450512']"
piranhablonde.com,[''],['wa'],[''],['98117'],['3rd avenue northwest'],[''],"['3rd Avenue Northwest Phinney Ridge, WA, 98117']"
salvometalworks.com,[''],['il'],['avenaperville'],['60563'],['5th'],[''],"['630-857-36310', '5th AveNaperville, IL 60563']"
violenceinterventionprogram.org,[''],['ca'],['los angeles'],['90031'],['griffin avenue'],['1721'],"['1721 Griffin Avenue Los Angeles, CA 90031']"
lombardglobal.com,"['', '']","['tx', 'tx']","['austin', 'austin']","['78701', '78701']","['w. 2nd st', 'w. 2nd st']","['500', '500']","['500 W. 2nd St Suite 1900 Austin, TX 78701', '500 W. 2nd St Suite 1900 Austin, TX 78701']"
garydawsonlaw.com,"['', '', '', '']","['tn', 'tn', '', '']","['knoxville', 'knoxville', '', '']","['37902', '37902', '', '']","['w summit hill dr', 'w summit hill dr', 'm t w t f s s « mar 1234567 8910', '15161718192021']","['100', '100', '11121314', '22232425262728']","['100 W Summit Hill Dr, Knoxville, TN 37902', '100 W Summit Hill Dr, Knoxville, TN 37902', '2024 M T W T F S S « Mar 1234567 891011121314', '15161718192021 22232425262728']"
abmechanical.com,[''],[''],[''],[''],['pay invoice cl'],['# 740508'],['866-502-4822 Pay Invoice CL# 740508']
mgtreeservices.com,[''],['tx'],[''],['75015'],[''],['955-4672'],['955-4672 \ue074 Office P.O. Box 153887Irving TX 75015']
flit.co,[],[],[],[],[],[],"['1,00021']"
creative-earthscapes.com,[''],['oh'],['columbus'],['43213'],['morrison rd'],['376'],"['376 Morrison Rd Columbus, Oh 43213']"
uniquelibrary.com,[''],[''],[''],[''],['879-5453new zealand:mbe'],['259'],['879-5453New Zealand:MBE 259 Private Bag 92175']
hebrewfreeloandc.org,[''],['md'],['spring'],['20915'],[''],[''],"['2752Silver Spring, MD 20915', '53-0227814']"
sarahssilks.com,[''],[''],[''],[''],['110.00 4.84375'],[''],"['18.00 4.854166666', '14.00 4.404332129', '22.00 4.767676767', '8.00 4.909604519', '28.00 4.66666666666667', '110.00 4.84375']"
sacredspacemiami.com,"['', '', '']","['fl', 'fl', 'fl']","['', '', '']","['33137', '33137', '33137']","['ne 24th streetmiami', 'ne 24th streetmiami', 'ne 24th streetmiami']","['105', '105', '105']","['105 NE 24th StreetMiami, FL 33137', '105 NE 24th StreetMiami, FL 33137', '105 NE 24th StreetMiami, FL 33137']"
jonesgrove.com,[],[],[],[],[],[],"['700 | Charlotte, NC | 28209']"
seanzmortgage.com,"['', '', '']","['mo', 'il', '']","['st. louis', ""o'fallon"", '']","['63139', '62269', '70-mlo']","['hampton ave', 'wall street', 'mo']","['1118', '784', '239823']","['1118 Hampton Ave St. Louis, MO 63139', '784 Wall Street Unit F O’Fallon, IL 62269', '239823 MO:70-MLO, IL:031.0084332', '2401335']"
whitehallcamp.org,[''],['pa'],[''],['16373'],[''],[''],"['8040Emlenton, PA 16373']"
shorecorporation.com,[''],['pa'],[''],['15003'],[''],[''],"['412.471.3330800', '3Ambridge, PA 15003']"
smokyhillmuseum.org,"['', '']","['kansas', 'kansas']","['salina', '']","['67401', '67401']","['pm 211 west iron avenue', 'west iron avenuesalina']","['00', '1997211']","['00 PM 211 West Iron Avenue Salina, Kansas 67401', '1997211 West Iron AvenueSalina, Kansas 67401']"
pproa.org,"['', '']","['texas', 'texas']","['amarillo', 'amarillo']","['79106', '79106']","['bell st.', 'bell st.']","['3131', '3131']","['3131 Bell St., Suite 209 Amarillo, Texas 79106', '3131 Bell St., Suite 209 Amarillo, Texas 79106']"
beemlaw.com,"['', '']","['il', 'tx']","['chicago', 'dallas']","['60606', '75201']","['', '1400']","['', '']","['3000 Chicago, IL 60606', '1400 Dallas, TX 75201']"
peoplefirstlawyers.com,[],[],[],[],[],[],['08054 16000']
copyarmy.com,[''],['pa'],['elizabethtown'],['17022'],['n. market st.'],['412'],"['412 N. Market St. Elizabethtown, PA 17022']"
agoraproductions.org,[],[],[],[],[],[],['310) 694-8119 (310) 694-8119 P.O. Box 452688']
centerlinelogistics.com,[''],['wa'],['seattle'],['98134'],['sw spokane street'],['910'],"['2023140M+Barrels of Oil Moved Safely in 202370', '910 SW Spokane Street Seattle WA 98134']"
safebasementsinc.com,[''],['mn'],['stpaynesville'],['56362'],['minnie'],['28272'],"['28272 Minnie StPaynesville, MN 56362']"
paykings.com,[''],['fl'],['st. petersburg'],['33701'],['central ave'],['433'],"['433 Central Ave, St. Petersburg, FL 33701']"
barrywilliamsplumbing.com,[],[],[],[],[],[],['910) 367-8292 [email protected] NC License 18804']
dreng.com,[''],['michigan'],['novi'],['48377'],['desoto court'],['46475'],"['46475 Desoto Court Novi, Michigan 48377', '248-668-3450 Texas Office 21321']"
taabc.org,[''],['ca'],['santa ana'],['92705'],['e edinger ave'],['1801'],"['1801 E Edinger Ave, Ste 210,Santa Ana, CA 92705']"
commongroundchildcare.org,"['', '']","['va', 'va']","['reston', 'reston']","['20190', '20190']","['wainwright drive', 'wainwright drive']","['1700', '1700']","['1700 Wainwright Drive, Reston, VA, 20190', '7034378226', '8226 • 1700 Wainwright drive, Reston VA 20190']"
scenicviewcc.com,[''],['wi'],['slinger'],['53086'],['club drive'],['4415'],"['4415 Club Drive Slinger, WI 53086']"
poulsbofamilydentistry.com,[''],['wa'],['poulsbo'],['98370'],[''],['200'],"['200, Poulsbo, WA 98370', '3607797115']"
ecocolorssalon.com,"['', '']","['georgia', 'ga']","['atlanta', 'atlanta']","['30324404', '30324']","['101', 'n rock springs rd']","['', '1860']","['101 Atlanta , Georgia 30324404', '1860 N Rock Springs Rd Suite 101 Atlanta GA 30324']"
ortonceramic.com,"['', '']","['ohio', 'ohio']","['westerville', 'westerville']","['43086', '43082']","['', 'old 3c highway']","['2760', '6991']","['2760 Westerville, Ohio 43086', '6991 Old 3C Highway Westerville, Ohio 43082']"
airstreamlosangeles.com,"['', '']","['ca', 'ca']","['san gabriel', 'san gabriel']","['91776', '91776']","['e las tunas drive', 'e las tunas drive']","['1212', '1212']","['1212 E Las Tunas Drive San Gabriel, CA 91776', '24X TypeMotorhome ClassClass B Stock #AL23140', '400w Solar and Lithium Batteries!! AL23140', '24GT TypeMotorhome ClassClass B Stock #AL23063', '1212 E Las Tunas Drive San Gabriel, CA 91776']"
mulchandsod.com,"['', '']","['fl', 'fl']","['apopka', 'apopka']","['32703', '32703']","['apopka blvd.', 'apopka blvd.']","['2773', '2773']","['2773 Apopka Blvd. Apopka, FL 32703', '2773 Apopka Blvd. Apopka, FL 32703']"
adkfragrancefarm.com,[''],['ny'],['potsdam'],['13676'],['hwy-72'],['1551'],"['1551 HWY-72, Potsdam NY 13676']"
solidrenovations.com,[''],['sc'],['charleston'],['29403'],['king street'],['696'],"['696 King Street Charleston, SC 29403']"
sardisbaptist.com,[''],[''],[''],[''],['704) 882-2982'],['3602'],['704) 882-29823602']
iqfitness.net,"['', '']","['georgia', 'georgia']","['atlanta', 'atlanta']","['30309', '30309']","['peachtree road', 'peachtree road']","['2303-b', '2303-b']","['2303-B Peachtree Road, Atlanta, Georgia 30309', '2303-B Peachtree Road, Atlanta, Georgia, 30309']"
cjmcbride.org,[''],['alabama'],['foley'],['36536'],[''],[''],"['26 (Mailing) P.O. Box 2187 Foley, Alabama 36536']"
bcpas.com,"['', '', '', '', '', '', '']","['tn', 'tn', 'tn', 'tn', 'tn', 'tn', 'tn']","['brentwood', 'dickson', 'mt. juliet', 'goodlettsville', 'nashville', 'murfreesboro', 'columbia']","['37027', '37055', '37122', '37072', '37203', '37128', '38401']","['ward circle', 'east college st', 'north mount juliet road', 'conference drive', 'church street', 'rideout lane', 'w 7th st']","['215', '308', '2672', '917', '700', '2656', '102']","['215 Ward Circle Brentwood, TN 37027', '308 East College St Dickson, TN 37055', '2672 North Mount Juliet Road Mt. Juliet, TN 37122', '917 Conference Drive Goodlettsville, TN 37072', '700 Church Street Suite 100 Nashville, TN 37203', '2656 Rideout Lane Murfreesboro, TN 37128', '102 W 7th St Suite 100 Columbia, TN 38401']"
aatoppers.com,"['', '']","['co', 'co']","['lakewood', 'littleton']","['80214', '80121']","['', 'south broadway']","['6955', '5425']","['6955 West Colfax Lakewood,CO 80214', '5425 South Broadway Littleton,CO 80121']"
bocahomecareservices.com,[''],['fl'],['boca raton'],['33431'],['nw 2nd ave'],['4700'],"['4700 NW 2nd Ave, Suite 400 Boca Raton, Fl 33431', '30211009']"
optimumcarehomecare.com,"['', '', '']","['va', 'va', 'va']","['dumfries', 'mclean', 'fredericksburg']","['22554', '22102', '22401']","['fettler park drive', 'greensboro drive', 'plank road']","['3683', '8200', '2324']","['3683 Fettler Park Drive Dumfries, VA 22554', '8200 Greensboro Drive McLean, VA 22102', '2324 Plank Road Fredericksburg, VA 22401']"
trinityairmedical.com,[''],['arizona'],['tempe'],['85284'],['w auto drive'],['1437'],"['1437 W Auto Drive, Tempe, Arizona 85284']"
marysvillelib.org,[''],['oh'],['marysville'],['43040'],['s. plum street'],['231'],"['231 S. Plum Street Marysville, OH 43040', '27 for Memorial Day Raymond Branch 21698']"
thundermountainharley.com,"['', '']","['co', 'co']","['loveland', 'loveland']","['80538', '80538']","['byrd drive', 'byrd drive']","['710-8965 4250', '4250']","['710-8965 4250 Byrd Drive, Loveland, CO 80538', '4250 Byrd Drive, Loveland, CO 80538']"
yanceyworks.com,[''],['ca'],['roseville'],['95678'],['reserve dr'],['919'],"['919 Reserve Dr Ste 101, Roseville, CA 95678']"
stationinnpa.com,"['', '']","['pa', 'pa']","['cresson', 'cresson']","['16630', '16630']","['front street', '827 front street']","['827', '886-4757']","['827 Front Street Cresson, PA 16630', '886-4757 827 Front Street, Cresson, PA 16630']"
premierdentalcareofbuckhead.com,[''],['ga'],['atlanta'],['30305'],['113'],[''],"['113 Atlanta, GA 30305']"
sprucemountaininn.com,"['', '', '', '']","['vt', 'vt', 'vt', 'vt']","['plainfield', 'plainfield', 'plainfield', 'plainfield']","['05667', '05667', '05667', '05667']","['', '', '', '']","['153', '153', '153', '153']","['153 Plainfield, VT 05667', '153 Plainfield, VT 05667', '153 Plainfield, VT 05667', '153 Plainfield, VT 05667']"
westfloproducts.com,[],[],[],[],[],[],['77506713']
erling.com,"['', '']","['tx', 'tx']","['hutto', 'hutto']","['78634', '78634']","['benelli drive', '']","['225', '']","['225 Benelli Drive Hutto, TX 78634', '1269 Hutto, TX 78634']"
pchandy.net,[],[],[],[],[],[],"['2162439662', '17734138075']"
newportbutane.com,[''],[''],[''],['15763'],['e-mail sales@newportbutane.com address'],['5302'],['5302 E-mail sales@newportbutane.com Address 15763']
thevetcenter.com,"['', '']","['fl', 'fl']","['gainesville', 'gainesville']","['32606', '32606']","['43rd street', '43rd street']","['', '']","['43RD STREET, SUITE 501 GAINESVILLE, FL 32606', '43RD STREET, SUITE 501 GAINESVILLE, FL 32606']"
tbtyler.com,"['', '', '', '', '']","['tx', '', 'tx', 'tx', '']","['tyler', '', '', 'tyler', '']","['75709', '13687', '75709', '75709', '-95.39484']","['fm 206 |', '903) 597-1263 fax address', '', 'fm 206', '32.32275']","['13687', '', '', '13687', '75709']","['903) 597-1263 13687 FM 206 | Tyler, TX 75709', '903) 597-1263 Fax: Address: 13687', '206Tyler, TX 75709', '13687 FM 206, Tyler, TX 75709', '903) 597-1263 Fax: 75709 32.32275,-95.39484']"
ferrellaw.com,[''],['va'],['clifton'],['20124'],[''],['312'],"['312 Clifton, VA 20124']"
kauffmangas.com,[''],['pa'],['atglen'],['19310'],['gap newport pike'],['850'],"['850 Gap Newport Pike, Atglen PA 19310']"
itsabouttimeboutique.com,[''],['ga'],['streetcartersville'],['30120'],['east main'],['9'],"['9 East Main StreetCartersville, GA 30120']"
frclothingandsupply.com,[''],['co'],['platteville'],['80651'],['justin ave'],['340'],"['340 Justin Ave Suite # 104 Platteville, CO 80651']"
changemanagementreview.com,[''],['nc'],[''],['28027'],['bayfield pkysuite'],['6012'],"['6012 Bayfield PkySuite 208Concord, NC 28027']"
ourbellinis.com,[''],['al'],['birmingham'],['35242'],['cahaba valley rd'],['6801'],"['6801 Cahaba Valley Rd, Birmingham, AL, 35242']"
reshapelifesciences.com,[''],['ca'],['irvine'],['92618'],['technology drive'],['18'],"['18 Technology Drive Suite 110 Irvine, CA 92618']"
cityave.org,[''],['pa'],['bala cynwyd'],['19004'],['belmont ave'],['1'],"['1 Belmont Ave Suite 700 Bala Cynwyd, PA 19004']"
kellyandstonearchitects.com,"['', '']","['california', 'colorado']","['truckee', 'steamboat springs']","['96161', '80487']","['', '']","['211', '103']","['211 Truckee, California 96161', '103 Steamboat Springs, Colorado 80487']"
trivan.com,"['', '']","['wa', 'wa']","['', 'ferndale']","['98248', '98248']","['w smith road', 'w smith rd']","['1385', '1385']","['1385 W Smith Road, Ferndale, WA 98248', '360.380.0773 1385 W Smith Rd, Ferndale, WA 98248']"
fccmwc.org,[],[],[],[],[],[],"['18, 2024 First Christian Church 11950']"
westbrosinc.com,[''],['ut'],['murray'],['84123'],['s riverside dr'],['4740'],"['4740 S Riverside Dr Murray, UT 84123']"
birminghambuilder.com,[''],['al'],['birmingham'],['35210'],[''],[''],"['240 Birmingham, AL 35210']"
blueoceanvillas.com,[],[],[],[],[],[],['18047148290']
newhomemedia.net,[''],['va'],['fredericksburg'],['22405'],['sage lane'],['39'],"['39 Sage Lane Fredericksburg, VA 22405']"
demaeng.com,[''],['mo'],['saint louis'],['63122'],['big bend road'],['10020'],"['10020 Big Bend Road Saint Louis, MO 63122']"
floridacommercialteam.com,[''],['florida'],['south miami'],['33143'],['red road |'],['7220'],"['7220 Red Road | South Miami, Florida 33143']"
novellasrecycling.com,"['', '']","['connecticut', 'ct']","['danbury', 'danbury']","['06810', '06810']","['thorpe st.', 'thorpe street']","['5', '5']","['5 Thorpe St., Danbury, Connecticut 06810', '203.743.5275 5 Thorpe Street, Danbury, CT, 06810']"
greenwave.us.com,[''],['ca'],['city of industry'],['91748'],['s. azusa avenue'],['895'],"['895 S. Azusa Avenue City of Industry, CA 91748']"
lrgmarketing.com,[''],['new york'],['nyack'],['10960'],['burd street'],['48'],"['48 Burd Street, Suite 105 Nyack, New York 10960']"
pripo.com,[''],['nc'],['asheville'],['28801'],['church st.'],['77'],"['77 Church St. Asheville, NC 28801']"
miamifloridahomesecurity.com,[''],['fl'],['miami'],['33166'],['nw 82 ave'],['3650'],"['3650 NW 82 Ave Suite 405 Miami, Fl 33166']"
toplinetireandauto.com,"['', '', '', '', '', '']","['fl', '', 'fl', '', 'fl', '']","['spring hill', '', 'brooksville', '', 'spring hill', '']","['34606', '13251', '34613', '', '34606', '-82.60954']","['commercial way', '352)-666-6446', 'cortez blvd.', '28.53388', 'commercial way', '28.48026']","['3371', '', '13251', '34613', '3371', '34606']","['3371 Commercial Way Spring Hill, FL 34606', '352)-666-6446 13251', '13251 Cortez Blvd., Brooksville, FL 34613', '352-596-6613 Fax: 352-596-7474 34613 28.53388', '82.50426', '3371 Commercial Way , Spring Hill, FL 34606', '352) 666-6446 Fax: 34606 28.48026,-82.60954']"
santaclarajumpers.com,[''],['ca'],['santa clara'],['95050'],['walsh ave'],['2116'],"['2116 Walsh Ave Ste A, Santa Clara, Ca 95050']"
hancock.k12.ga.us,[''],['georgia'],[''],['31087706'],['north'],['15'],"['15 North, PO Box 488Sparta, Georgia 31087706', '444-5775706']"
lchealth.org,"['', '']","['ma', 'ma']","['lowell', 'lowell']","['01852', '01852']","['jackson street', 'jackson street']","['161', '161']","['161 Jackson Street Lowell, MA 01852', '161 Jackson Street, Lowell, MA 01852']"
mscenteroftidewater.com,"['', '', '']","['virginia', 'virginia', 'virginia']","['norfolk', 'norfolk', 'virginia beach']","['23502', '23502', '23454']","['', '', '']","['315', '315', '']","['315 Norfolk, Virginia 23502', '315 Norfolk, Virginia 23502', '101 Virginia Beach, Virginia 23454']"
weberortho.com,[''],['il'],['avewheaton'],['60187'],['w willow'],['210'],"['210 W Willow AveWheaton, IL 60187']"
moline.com,[''],['mn'],['duluth'],['55807'],['south central avenue'],['114'],"['114 South Central Avenue Duluth, MN 55807']"
folsomshope.org,"['', '']","['ca', '']","['folsom', '']","['95630', '']","['blue ravine road', '916) 246-9978']","['1100', '1100']","['1100 Blue Ravine Road Folsom, CA 95630', '916) 246-99781100']"
tetonthaivillage.com,[''],['wy'],['teton village'],['83025'],['granite loop road'],['7342'],"['7342 Granite Loop Road, Teton Village, WY, 83025', '3077330022']"
coregearusa.com,[''],['ca'],['riverside'],['92508'],[''],['200'],"['200 Riverside, CA 92508']"
dentremovalcedarfalls.com,[''],['ia'],['cedar falls'],['50613'],['fast lane'],['3620'],"['3620 Fast Lane, Suite C Cedar Falls, IA 50613']"
tamethewater.com,"['', '']","['', 'alabama']","['', 'athens']","['35611', '35611']","['alabama', 'us hwy 72 e']","['#1044athens', '1036']","['1036 US Hwy 72 E #1044Athens, Alabama, 35611', '1036 US Hwy 72 E #1044 Athens, Alabama 35611']"
historicldstours.com,[],[],[],[],[],[],['84095801']
bregmanpartners.com,"['', '', '', '', '', '', '', '', '', '', '', '']","['', '', '', '', '', '', '', '', '', '', '', '']","['', '', '', '', '', '', '', '', '', '', '', '']","['30800', '30800', '30800', '30800', '30800', '30800', '30800', '30800', '30800', '30800', '30800', '30800']","['10"" ""parent"" ""', '30"" ""parent"" ""', '45"" ""parent"" ""', '80"" ""parent"" ""', '10"" ""parent"" ""', '30"" ""parent"" ""', '45"" ""parent"" ""', '80"" ""parent"" ""', '10"" ""parent"" ""', '30"" ""parent"" ""', '45"" ""parent"" ""', '80"" ""parent"" ""']","['', '', '', '', '', '', '', '', '', '', '', '']","['0,""config"":{""colors"":{""30800', '10"",""parent"":""30800', '30"",""parent"":""30800', '45"",""parent"":""30800', '80"",""parent"":""30800', '0,""config"":{""colors"":{""30800', '10"",""parent"":""30800', '30"",""parent"":""30800', '45"",""parent"":""30800', '80"",""parent"":""30800', '0,""config"":{""colors"":{""30800', '10"",""parent"":""30800', '30"",""parent"":""30800', '45"",""parent"":""30800', '80"",""parent"":""30800']"
manddbirdfarm.com,[],[],[],[],[],[],['684-410126754']
precisioninternational.com,"['', '', '']","['nc', 'nc', 'nc']","['asheville', 'asheville', 'roadasheville']","['28806', '28806', '28806']","['sardis road', 'sardis road', 'sardis']","['23', '23', '23']","['12-1pm 23 Sardis Road Asheville, NC 28806', '23 Sardis Road Asheville, NC 28806', '828) 670-9191 23 Sardis RoadAsheville, NC 28806']"
promoviper.com,[''],['ga'],['hazlehurst'],['31539'],['post rd'],['1266'],"['1266 Post Rd, Hazlehurst, GA, 31539']"
meditatingentrepreneur.com,[''],['ia'],['fairfield'],['52556'],['n. court st.'],['110'],"['110 N. Court St. Fairfield, IA 52556', '13: 978-0-9652187', '4-0 (Paperback edition) ISBN-13: 978-0-9652187']"
teladata.com,"['', '']","['', 'ca']","['', '']","['39300', '94538']","['email protected', '']","['', '']","['510) 979-1200[email protected] 39300', '390Fremont, CA 94538']"
salesianhigh.org,[''],['ny'],['new rochelle'],['10801'],['e. main street'],['148'],"['148 E. Main Street New Rochelle, NY 10801']"
springshare.com,[],[],[],[],[],[],['106 Countries Worldwide 250000']
valentbiosciences.com,[''],['illinois'],['libertyville'],['60048'],[''],['100'],"['100 Libertyville, Illinois 60048']"
henges.com,[''],['missouri'],['earth city'],['63045'],['shoreline drive'],['4133'],"['4133 Shoreline Drive Earth City, Missouri 63045']"
coxreels.com,[''],['az'],['tempe'],['85283'],['s. ash ave.'],['5865'],"['5865 S. Ash Ave. Tempe, AZ 85283']"
switcheyecenter.com,[''],[''],[''],['48180'],['telegraph roadtaylor mi'],['8950'],"['8950 Telegraph RoadTaylor, MI 48180']"
synpoly.com,[''],['texas'],['sugar land'],['77487'],[''],['69'],"['69 Sugar Land, TEXAS 77487']"
wheelalignmenttorrance.com,[''],['calif.'],['torrance'],['90501'],[''],['2'],"['2. Torrance, Calif. 90501']"
parkwaytoyota.com,"['', '', '']","['nj', 'nj', 'nj']","['englewood cliffs', 'englewood cliffs', 'englewood cliffs']","['07632', '07632', '07632']","['directions', '', '']","['9w', '9w', '9w']","['9W) Directions Englewood Cliffs, NJ 07632', '9W) Englewood Cliffs, NJ 07632', '9W) Englewood Cliffs, NJ 07632']"
fmsymphony.org,[''],['nd'],['fargo'],['58103'],['3rd avenue south'],[''],"['3rd AVENUE SOUTH #300, FARGO, ND 58103']"
div.energy,[],[],[],[],[],[],['09156132']
billingssecuritycameras.com,"['', '', '']","['mt', 'mt', 'mt']","['billings', '', 'billings']","['59101', '59601', '59101']","['broadwater ave', 'n sanderssuite', 'broadwater ave']","['230', '501', '230']","['230 Broadwater Ave Billings, MT 59101', '501 N SandersSuite 203Helena, MT 59601', '230 Broadwater Ave Billings, MT 59101']"
gokeyless.com,[''],['oh'],['miamisburg'],['45342'],['mound rd'],['955'],"['937) 247-9327 955 Mound Rd Miamisburg, OH 45342']"
tcors.com,[''],['ct'],['london'],['06320'],['new'],['58'],"['58 New London, CT 06320']"
usmrc.org,[''],['ri'],['middletown'],['02842'],['aquidneck avenue'],['344'],"['344 Aquidneck Avenue Middletown, RI 02842']"
innocon.com,[],[],[],[],[],[],['875000010163960071-247034780777644109']
stonearchcapital.com,[''],['mn'],['minneapolis'],['55402'],[''],['212'],"['212 Box 227 Minneapolis, MN 55402']"
tri-starmechanical.com,"['', '']","['il', 'il']","['elk grove village', 'elk grove village']","['60007', '60007']","['joey drive', 'joey drive']","['114', '114']","['114 Joey Drive, Elk Grove Village, Il 60007', '1304847', '114 Joey Drive, Elk Grove Village, Il 60007']"
veteransrebuildinglife.org,"['', '', '']","['', '', 'ny']","['', '', 'astoria']","['', '27029', '11105']","['c', 'st-119', '23rd ave. 414']","['3', '079703556', '38-01']","['501(c)(3) nonprofit organization EIN: 27-3586224', '079703556 ST-119: 27029', '38-01 23rd Ave. 414 Astoria, NY 11105']"
mimivax.com,[],[],[],[],[],[],['22.00996']
deltaglobalinvestments.com,[''],['ma'],['bolton'],['01740'],['main st.'],['579'],"['579 Main St., Bolton, MA 01740']"
thevillahome.com,[],[],[],[],[],[],"['562) 299-4940 CA. License # 198204587', '6694 Corrine Cell (Manager): (562) 299-4940 12565', '198204587']"
superiordistribution.net,[''],['tx'],[''],['75070'],['state highway 121mckinney'],['7440'],"['7440 State Highway 121McKinney, TX 75070']"
rodneyyoungphotography.com,[''],['tx'],['mansfield'],['76063'],['zachary ct'],['1'],"['1 Zachary Ct Mansfield TX, 76063']"
airservicesco.com,"['', '', '']","['il', 'il', 'wi']","['elk grove village', 'loves park', 'new berlin']","['60007', '61111', '53151']","['seegers avenue', 'forest hills road', '2467 s. 170th street']","['211', '6914', '3555']","['211 Seegers Avenue Elk Grove Village, IL 60007', '6914 Forest Hills Road Loves Park, IL 61111', '3555 2467 S. 170th Street New Berlin, WI 53151']"
atlinkcom.com,"['', '']","['tx', 'tx']","['houston', 'houston']","['77058', '77058']","['gemini st', '1-281-645-6907']","['1115', '']","['1115 Gemini St, Suite 200, Houston, TX - 77058', '1-281-645-6907 Houston, TX 77058']"
shadowhills.org,[''],['nv'],['las vegas'],['89128'],['vegas dr'],['7811'],"['7811 Vegas Dr, Las Vegas, NV 89128']"
smallgirlspr.com,[''],['ny'],['new york'],['10011'],['w 22nd st'],['150'],"['150 W 22nd St, 11th Floor , New York, NY 10011']"
aurorak12.org,[''],['co'],['aurora'],['80011'],['1st ave.'],[''],"['1st Ave., Aurora, CO 80011']"
florestaurant.com,[''],['wa'],['bellevue'],['98004'],['106th ave ne'],['453-4005 1150'],"['453-4005 1150 106th Ave NE Bellevue, WA 98004']"
moviestarjacket.com,"['', '']","['nj', 'nj']","['new providence', 'new providence']","['07974', '07974']","['williams mine road', 'williams mine road']","['1044', '1044']","['1044 Williams Mine Road, New Providence, NJ 07974', '1044 Williams Mine Road, New Providence, NJ 07974']"
camphillvillage.org,"['', '']","['ny', '']","['copake', 'copake']","['12583', '']","['camp hill road', 'camphill village']","['84', '2023']","['84 Camp Hill Road Copake, NY 12583', '2023 Camphill Village Copake EIN: 14-1463358']"
pusd.us,[''],[''],[''],['ave.pasadenaca91109626.396.3600626'],['s. hudson'],['351'],"['2020State of Schools 20192018', '20212020', '351 S. Hudson Ave.PasadenaCA91109626.396.3600626']"
sidebysideclubhouse.org,[''],['ga'],['stone mountain'],['30083'],['main street'],['1001'],"['1001 Main Street, Stone Mountain, GA 30083']"
endevon.com,[''],['ny'],['new york'],['10022'],[''],[''],"['14th Floor New York, NY 10022']"
hvac-tech.com,"['', '']","['il', 'il']","['chicago', 'chicago']","['60632', '60632']","['s. kolin avenue', '']","['4532', '']","['4532 S. Kolin Avenue, Chicago, IL 60632', '2nd Floor) Chicago, IL 60632']"
parry-insurance.com,"['', '']","['pa', 'pa']","['langhorne', 'langhorne']","['19047', '19047']","['corporate drive east', 'corporate drive east']","['107', '107']","['107 Corporate Drive East Langhorne PA 19047', '107 Corporate Drive East Langhorne PA 19047']"
wtxfoodbank.org,"['', '', '', '']","['texas', 'texas', 'tx', 'tx']","['odessa', 'midland', 'odessa', 'odessa']","['79761', '79703', '79760', '79761']","['south pagewood avenue', 'westcliff drive', '', 'south pagewood avenue']","['411', '1601', '', '411']","['411 South Pagewood Avenue Odessa, Texas 79761', '1601 Westcliff Drive Midland, Texas 79703', '4242 Odessa, TX 79760', '752057692', '411 South Pagewood Avenue, Odessa, TX 79761']"
crossfitrockland.com,[''],['ny'],['orangeburg'],['10962'],['s. greenbush rd'],['17'],"['17 S. Greenbush Rd Orangeburg, NY 10962']"
paintingconcepts.com,[],[],[],[],[],[],"['94-7388-PU-X Palm Beach Lic. #U-18009', '2024 Painting Concepts. Palm Beach Lic. #U-18009']"
nationalforests.org,[''],['mt'],['missoula'],['59804'],['fort missoula rd.'],['27'],"['27 Fort Missoula Rd. Ste 3 Missoula, MT 59804', '52-1786332']"
fairmans.com,[''],['pa'],['west chester'],['19380'],['west gay street'],['43'],"['43 West Gay Street West Chester, PA 19380']"
cre8group.com,[''],['florida'],['tampa'],['33611'],['w ballast point blvd'],['3107'],"['3107 W Ballast Point Blvd Tampa, Florida 33611']"
milehightattoo.com,"['', '']","['colorado', 'co']","['denver', 'denver']","['80229', '80229']","['grant street', '']","['10351', '']","['10351 Grant Street, Denver, Colorado 80229', '10, Denver, CO 80229']"
greatstatetransmissions.com,"['', '']","['tx.', 'tx.']","['s.p.i.dcc', 's.p.i.dcc']","['78415', '78415']","['', '']","['', '']","['361) 855-4637 Visit 3487 S.P.I.DCC, Tx. 78415', '361) 855-4637 Visit 3487 S.P.I.DCC, Tx. 78415']"
lancastermennonite.org,[''],['pa'],['elancaster'],['17602'],['lincoln hwy'],['2176'],"['2176 Lincoln Hwy ELancaster, PA 17602']"
heritagelifestyledoors.com,"['', '', '']","['co', 'co', 'co']","['denver', 'denver', 'denver']","['80212', '80212', '80212']","['4300 w 38th ave', 'west 38th avenue', 'w 38th ave']","['10-3', '4300', '4300']","['10-3 4300 W 38th Ave Denver, CO 80212', '10am-3pm 4300 West 38th Avenue Denver, CO 80212', '4300 W 38th Ave Denver, CO 80212']"
kupferbergcenter.org,[''],[''],[''],['11367'],['153-49 reeves avenueflushing ny'],['793-8080'],"['793-8080 153-49 Reeves AvenueFlushing, NY 11367']"
theflounderfishcamp.com,"['', '']","['', 'sc']","['spartanburg', 'spartanburg']","['29303', '29303']","['barbado lane', 'barbado lane']","['160', '160']","['160 Barbado Lane, Spartanburg 29303', '160 Barbado Lane, Spartanburg, SC 29303']"
teamecco.org,[''],['nc'],['st.hendersonville'],['28792'],['n. main'],['511'],"['511 N. Main St.Hendersonville, NC 28792']"
ewingbuildingandcabinets.com,[''],['va'],['blacksburg'],['24060'],['s. main street'],['1701'],"['1701 S. Main Street Blacksburg, VA 24060']"
magnummobilesv.com,[''],['az.'],['phoenix'],['85027'],['n. 19th ave.'],['23225'],"['23225 N. 19th Ave. Phoenix, AZ. 85027']"
flstatewideinsurance.com,[''],['fl'],['fort lauderdale'],['33306'],[''],['101'],"['954-734-74291', '101 Fort Lauderdale, FL 33306']"
pastisani.com,[''],[''],[''],[''],['49'],['1732137428'],['49 1732137428']
infinity-reisen.com,[''],[''],[''],[''],['711 4695202'],['2'],"['27 70736', '49 711 46952022']"
solarlightsandmore.com,[''],['fl'],['ocala'],['34474'],['sw 6th pl suite 400'],['5640'],"['5640 SW 6th Pl, Suite 400 Ocala, FL 34474']"
eurofighter.com,[''],[''],[''],['55000'],['kn max altitude'],['180'],['2.0 Mach Thrust 180 KN Max altitude 55000']
weinanzeiger.com,[''],[''],[''],[''],['cent.'],['06767510266'],['80-95 Cent. 06767510266']
cornerstone-mosinee.com,[''],['wi'],['~ mosinee'],['54455'],['5th st'],['601'],"['601 5th St ~ Mosinee, WI 54455']"
theswag.com,[''],['nc'],['waynesville'],['28785'],['swag road'],['2300'],"['2300 Swag Road Waynesville, NC 28785']"
hopegala.de,[],[],[],[],[],[],"['1853111', '94, Haus A01277 DresdenTelefon: 0351 259821', '60Fax: 0351 259821', '1853111', '94, Haus A01277 DresdenTelefon: 0351 259821', '60Fax: 0351 259821']"
schuhhause.de,[],[],[],[],[],[],['3 in 47918']
aycan.de,[],[],[],[],[],[],['5 97076']
binect.de,[''],[''],[''],['64331'],['brunnenweg'],['17'],"['49 6151 90670', '9067 - 0 Adresse Binect GmbH Brunnenweg 17 64331']"
kuk24.de,[],[],[],[],[],[],"['13D–71139', '13D–71139', '3425300']"
upswing.com,[''],['ca'],['morgan hill'],['95037'],['tennant sta #190'],['409'],"['562386403', '409 Tennant Sta, #190 Morgan Hill, CA 95037']"
bdia.de,[''],[''],[''],['10179'],['aufgang g'],['6'],"['6, Aufgang G 10179']"
twt-online-marketing.de,[''],[''],[''],['27001'],['sowie iso'],['13485'],['13485 sowie ISO 27001']
scheurer-arbeitsbuehnen.de,"['', '', '']","['', '', '']","['göppingen', '', '']","['73035', '', '']","['', '7171', '7021']","['1', '186421', '979326']","['07161 / 9141516', '07161 / 9141516', '1 73035 Göppingen Telefon: +4971619141516', '3 73529', '49 7171 186421', '106 73230', '49 7021 979326', '18 73035']"
spectra.de,[''],[''],[''],['d-72768'],['email protected mahdenstr.'],['3'],"['1432-10 [email protected] Mahdenstr. 3 D-72768', '3 D-72768']"
itsmgroup.com,"['', '']","['', '']","['bodenheim', '']","['93340', '']","['', '6135']","['6135', '933422']","['12 55294 Bodenheim Tel.: + 49 6135 93340', '49 6135 933422']"
hostnet.de,[],[],[],[],[],[],"['10154928580314486', '9641103']"
thornefinancialpartners.com,[''],['ma'],['hyannis'],['02601'],[''],['7-707'],"['7-707 Hyannis, MA 02601']"
kessel.de,[''],[''],['kessel'],['85101'],['bahnhofstraße'],['31'],"['2024 KESSEL SE + Co. KG, Bahnhofstraße 31, 85101']"
grfamilychiropractic.com,[''],['mi'],['grand rapids'],['49546'],['cascade rd se'],['6771'],"['1100 \ue081 6771 Cascade Rd SE, Grand Rapids, MI 49546']"
startupsucht.com,[''],[''],[''],[''],['von 2312345'],['1'],['1 von 2312345']
ixenso.com,"['', '', '']","['', '', '']","['', '', '']","['730673', '730673', '730673']","['0', 'email protected de en +49 0', '0']","['211', '211', '211']","['49 (0) 211 730673', '00 [email protected] DE EN +49 (0) 211 730673', '49 (0) 211 730673']"
scheu-group.com,[],[],[],[],[],[],['20 58642']
tdh.de,[],[],[],[],[],[],['66/270/01407']
bad-harzburg.de,"['', '', '']","['', '', '']","['', '', '']","['01234', '01234', '01234567891011121314151617']","['kinder', 'kinder', 'kind']","['12345678910', '12345678910', '1']","['12345678910 Kinder 01234', '12345678910 Kinder 01234', '1. Kind 01234567891011121314151617']"
portraitbox.com,[''],[''],['paderborn ·'],['05254'],[''],['4a ·'],['4a · 33106 Paderborn · 05254']
winnerbatterien.de,[],[],[],[],[],[],['61980398']
trademachines.com,[],[],[],[],[],[],['49 211 422737']
antenne-bethel.de,[''],[''],[''],[''],['von 12912345»'],['102030'],['1 von 12912345»102030']
go-east.de,"['', '']","['', '']","['', '']","['22761', '']","['hamburg +49', 'tel 040/896909-0 fax']","['0 40-896909', '040/896909']","['49-(0)40-896909', '54, 22761 Hamburg +49-(0)40-896909', '0 info@go-east.de +49-(0)40-896909', '54, 22761', '10:00 – 17:00 Tel: 040/896909-0 Fax: 040/896909']"
pixupmedia.com,[],[],[],[],[],[],"['34, 10115', '34, 10115']"
inkota.de,[],[],[],[],[],[],['1-3 10407']
shalom-israel-reisen.de,[''],[''],[''],['02203'],['uhr'],['9 00 17 00'],"['9:00 - 17:00 Uhr 02203', '46251145']"
joest-racing.de,[],[],[],[],[],[],"['2012) Kontakt Telefon +49 6207 94200', '14 69483']"
rs-torsysteme.de,[],[],[],[],[],[],['78 65555']
kamps.de,[],[],[],[],[],[],['11 41366']
gini.net,[''],[''],[''],['27001'],['2einbindung per sdkiso'],[''],"['2Einbindung per SDKISO 27001', '2ISO 27001']"
polizeioldtimer.de,[''],[''],[''],[''],['e.v.raiffeisenstraße'],['135043'],"['2024Öffnungszeiten 202431', '103, 35037', '1990 e.V.Raiffeisenstraße 135043', '10335037']"
uds-beratung.de,"['', '', '', '', '']","['', '', '', '', '']","['', '', '', '', '']","['14675', '77200', '03212', '14675', '14675']","['din', 'iso 9001 / din', 'fax', 'din', 'din']","['14677', '', '0661-380 25 56', '14677', '14677']","['14677 DIN 14675', '16763: Brand- und Sicherheitsanlagen DIN 14675', '9001: Qualitätsmanagement Planer DIN 14675', '16763 + DIN 14675', '9001 + DIN 77200', '0833 und DIN 14675', '9001 + DIN 77200 leicht erklärt DIN 77200', '9001 / DIN 14675 Angebot ISO 9001 / DIN 77200', '6 36039', '0661-380 25 56 Fax: 03212', '14677 DIN 14675', '16763: Brand- und Sicherheitsanlagen DIN 14675', '14677 DIN 14675', '16763: Brand- und Sicherheitsanlagen DIN 14675', '9001: Qualitätsmanagement Planer DIN 14675']"
kinderturnstiftung-bw.de,[''],[''],['stuttgart'],['0711-49092700'],[''],['19'],['19 70372 Stuttgart 0711-49092700']
bmw-z1.club,[],[],[],[],[],[],['11a 50226']
bfacademy.com,[''],[''],[''],['91610'],['0'],['7626'],"['49 (0)7626 91610', '50 79400']"
begehbares-glas.com,[],[],[],[],[],[],"['87 D – 33659', '87 33659']"
big-picture.com,[],[],[],[],[],[],"['18-20, 10997']"
eventflotte.de,[''],[''],[''],['02642'],['newsletter'],['0'],['0) Newsletter 02642']
helloclue.com,[],[],[],[],[],[],"['8652a60752024', '8652a60752024']"
nabu.de,[],[],[],[],[],[],"['030.284984', '3 10117']"
flyermaschine.de,[''],[''],[''],[''],['9721-5418470 telefon +49 (0)9721-541847'],['0'],"['49 (0)9721-5418470 Telefon: +49 (0)9721-5418470', '8.00–18.00 Uhr 09721', '8.00–18.00 Uhr 09721']"
academyconsult.de,[''],[''],[''],[''],['89'],['381686580'],"['6280802', '49 (0) 89 381686580']"
dirigent-gesucht.de,[],[],[],[],[],[],['109 70193']
science-on-stage.eu,[],[],[],[],[],[],"['15 13507', '49 30 400067']"
bettmer.de,[],[],[],[],[],[],['730000070003480573-3024348513960388']
franken-consulting.org,[],[],[],[],[],[],['1&version=v8.0&appId=ID: 410627935663867']
hk-bs.de,[''],[''],[''],['99904'],['friedrichsthal t +49'],['6897'],"['2023 Mittelstandskonferenz 202321', '12 66299 Friedrichsthal T +49 6897 99904', '0 F +49 6897 99904']"
internetx.com,"['', '']","['', '']","['', 'regensburg']","['59559', '59559']","['uhr+49', '']","['941', '941']","['49 941 59559', '49 941 59559', '49 941 59559', '49 941 59559', '49 941 59559', '49 941 59559', '483 Kontakt Kontakt Tel.: +49 941 59559', '8:30 - 20:30 Uhr+49 941 59559', '9:00 - 17:30 Uhr +49 941 59559', '9:00 - 17:30 Uhr +49 941 59559', '49 941 59559', '55 93055 Regensburg GermanyTel. +49 941 59559', '0Fax +49 941 59559']"
sebastian-klammer.de,[],[],[],[],[],[],"['28, 10407']"
dedeso.com,[],[],[],[],[],[],['1045257 Essen.support@dedeso.com0201-8579000']
bioanalyt.com,[],[],[],[],[],[],['49 (0)3328-35150']
intergral.com,[],[],[],[],[],[],['2024 Company Registration: Stuttgart HRB24459']
systeme24.de,[],[],[],[],[],[],['24/7 für Sie da: 06131 – 58335']
campingshop-24.de,"['', '']","['', '']","['', '']","['', '']","['0', '0']","['2863 / 95694', '2863 / 956940']","['24.de +49 (0) 2863 / 95694', '49 (0)2863 / 956940']"
salz-mischer.de,"['', '', '', '']","['', '', '', '']","['', '', '', '']","['', '', '', '']","['7271', '7271', '7271', '7271']","['9521161', '9521161', '9521161', '9521161']","['49 7271 9521161', '49 7271 9521161', '49 7271 9521161', '49 7271 9521161']"
vermes.com,"['', '', '', '']","['', 'oh', 'ca', '']","['', 'plain city', 'san jose', 'bengaluru']","['13800', '43064', '95131', '560078']","['taman sungai dua utama', 'warner road', 'ringwood ave', '8th phase j.p. nagar']","['1', '8510', '2226', '']","['2 83607', '1 Taman Sungai Dua Utama 13800', '8510 Warner Road, Suite 100, Plain City, OH 43064', '2226 Ringwood Ave San Jose, CA 95131', '8th Phase J.P. Nagar Bengaluru - 560078', '91 (0) 96630']"
erfolgx.de,"['', '']","['', '']","['', '']","['', '']","['uhr', '0']","['193517', '7254 / 95773']","['195777195771195754', '195749195667195763', '195775195759195758195757195756', '195498193540193462', '195624189826195628157275194334151739', '13439256073135383156407', '15.01 2024 08:00 Uhr 193517', '06.05.2024 162011195584162017187995191071161391', '49 (0)7254 / 95773']"
meininger.de,[''],[''],['neustadt/weinstraße tel.'],['06321'],[''],['7-15'],"['7-15, 67433 Neustadt/Weinstraße, Tel.: 06321']"
ebozon-verlag.com,[''],[''],[''],[''],['0'],['8669 9089989'],['49 (0)8669 9089989']
landmark-fine-travel.de,[],[],[],[],[],[],['40a | 50374']
skoobe.de,[],[],[],[],[],[],['49 89 2429267']
strateco.group,[],[],[],[],[],[],['45 61348']
kiwi-consulting.de,[''],[''],['weinsberg'],['07134'],['510 395 0713'],['4'],['54 D-74189 Weinsberg 07134 510 395 07134']
frankfurt-holm.de,[],[],[],[],[],[],"['7 60549', '49 69 240070-0 Telefax: +49 69 240070']"
brotfabrik-berlin.de,[''],[''],[''],[''],['13 apr 2024'],['02'],['13 Apr 2024 02:12:08 Browser time 1777363']
dailyme.de,[''],[''],['19 april'],['200486'],[''],[''],"['21:45 Uhr, 12.04.202415', '36Tagesschautagesschau 20:00 Uhr, 12.04.202404', '20 Jahren, 19. April 200486']"
dualinnovation.com,[],[],[],[],[],[],['22c87e5b-fb03-4456-b687-1e3e83e83279-1712974329']
daa-wirtschaftsakademie.de,"['', '']","['', '']","['düsseldorf', 'essen']","['40210', '45141']","['tel. 0', 'tel. 0201']","['211 1793730', '27897980']","['9 40210 Düsseldorf Tel.: 0 211 1793730', '0211 / 179373', '10 45141 Essen Tel.: 0201 27897980', '0 211 1793730']"
g-m-m.de,[''],[''],[''],['2a99423'],['lisztstraße'],['26 50'],['49 89 620 99 26 50 Lisztstraße 2a99423']
lisekruegerbarth.com,[],[],[],[],[],[],['1132 73055']
ifw-dresden.de,[],[],[],[],[],[],['20 01069']
sams-think-special.de,[],[],[],[],[],[],"['49 89 740064', '25 82166', '49 89 740064']"
digitalcoregraphics.de,[],[],[],[],[],[],['10 26389']
malteser-wetzlar.de,"['', '', '']","['', '', '']","['wetzlar', 'wetzlar', 'wetzlar']","['94940', '94940', '94940']","['', '', '']","['06441', '06441', '06441']","['17 35578 Wetzlar Telefon: 06441 94940', '17 35578 Wetzlar Telefon: 06441 94940', '17 35578 Wetzlar Telefon: 06441 94940']"
franzel.de,[],[],[],[],[],[],['8 34298']
voon.de,[''],[''],[''],[''],['friedrichsplatz'],['1768165'],"['1041516 Grevenbroich02182', '8217-0Mannheim:Friedrichsplatz 1768165']"
trankvile.com,"['', '']","['', '']","['hamburg', 'kiel']","['20257', '24340']","['sillemstr.', 'noorstr.']","['106', '22']","['110K, 22529 Hamburg Sillemstr. 106, 20257', '8, 24103 Kiel Noorstr. 22, 24340']"
dresden-onlineshop.de,[],[],[],[],[],[],['1 Fontane Center 01109']
postproductions.de,[],[],[],[],[],[],['3 20457']
fct-akademie.com,"['', '', '']","['', '', '']","['', '', '']","['292024', '422024', '552023']","['08', '07', '05']","['00', '00', '57']","['01-06 08:00:292024', '2023/05/230806', '08-06 07:00:422024', '04-08 05:57:552023']"
eps-personal.org,"['', '', '', '', '', '', '', '', '', '']","['', '', '', '', '', '', '', '', '', '']","['tuttlingen', '', 'pforzheim', 'schömberg tel.', '', 'stuttgart', '', '', 'rottweil', 'schorndorf']","['78532', '', '75175', '07427', '07427', '70180', '', '', '78628', '73614']","['werderstraße', 'fax', '', '', 'fax', 'tel.', 'fax', 'fax', 'tel.', '']","['16', '07461/90071', '15 17', '6', '9203-304', '0711/184274', '0711/184274', '07721/944718', '0741/942460', '19']","['01_headerbilder/eps-personalservice-1273452616', '0298089 . Tuttlingen Werderstraße 16 78532', '07461/90071-00 Fax: 07461/90071', '15 – 17 75175 Pforzheim Tel.: 07231/105093', '07231/357003', '6 72355 Schömberg Tel.: 07427', '9203-304 Fax: 07427', '112 70180 Stuttgart Tel.: 0711/184274', '0 Fax: 0711/184274', '9 78050 VS-Villingen Tel.: 07721/944718', '0 Fax: 07721/944718', '11 78628 Rottweil Tel.: 0741/942460', '0741/94246', '19 73614 Schorndorf Tel.: 07181/4768075', '07181/4768073']"
horze.eu,[''],[''],[''],[''],['00 +49 661 966 94103'],['8 00-12'],"['12:00-18:00, Fri: 8:00-12:00 +49 661 966 94103']"
mp-gruppe.de,[],[],[],[],[],[],['2–4 38114']
haasehof.de,"['', '']","['', '']","['sittensen', '']","['27419', '04282']","['', '· fax']","['04282', '5577']","['92133636', '5 · 27419 Sittensen · Telefon: 04282', '5577 · Fax: 04282']"
goettfert.de,[],[],[],[],[],[],['2 Postfach 1261 74722']
gargiulo.de,[],[],[],[],[],[],['21 72147']
leanport.de,[],[],[],[],[],[],"['20 10117', '20 10117']"
pixelboxx.com,[''],[''],[''],['44135'],['ostenhellweg'],['50-52'],"['49 231 53463-0Fax: +49 231 53463', '329 Ostenhellweg 50-52,44135']"
delphin.com,"['', '']","['', '']","['', '']","['97685', '97685']","['0', '0']","['2204', '2204']","['49 (0) 2204 97685', '81 51427', '49 (0) 2204 97685']"
wunderstudios.com,[],[],[],[],[],[],"['5113347', '5113347']"
ralphjo.com,[],[],[],[],[],[],['28a | D-08209']
stein-automation.de,[''],[''],[''],[''],['service johann-liesenberger-straße'],['778078'],"['49 7728 64485', '0 Service Johann-Liesenberger-Straße 778078', '49 7728 / 64485']"
sysy.com,[],[],[],[],[],[],['28a | 37079']
leagasdelaney.de,[''],[''],[''],['22767'],['¿'],[''],['145aï»¿22767']
consulegis.com,[''],[''],[''],[''],['152'],['36381171'],"['7. 22297', '49 152 36381171']"
kunstverein-bielefeld.de,[],[],[],[],[],[],"['61 33602', '61 33602']"
hotel-badischerhof-badenbaden.de,"['', '']","['', '']","['', '']","['', '']","['m d m d f s s 1234567 8910', '15161718192021']","['11121314', '22232425262728']","['2024 M D M D F S S 1234567 891011121314', '15161718192021 22232425262728']"
amex-sanivar.com,[],[],[],[],[],[],['6 40472']
innoactive.io,[],[],[],[],[],[],"['26, 20202']"
dectomusic.com,[],[],[],[],[],[],['03/2023Artwork10/07/2015Shooting Summer 201304']
zahnarzt.ac,[],[],[],[],[],[],"['22-24, 52062']"
bos-buero.de,[],[],[],[],[],[],"['2a50676 Köln +49 221 801623', '20640233']"
makers.do,[],[],[],[],[],[],"['21, 10178']"
cellsystems.eu,"['', '', '', '', '', '', '']","['', '', '', '', '', '', '']","['', '', '', '', '', '', '']","['262024', '412024', '142023', '342023', '392023', '162024', '53844']","['11', '09', '15', '10', '15', '11', 'junkersring']","['24', '52', '09', '37', '42', '18', '5']","['01-26 11:24:262024', '01-12 09:52:412024', '09-22 15:09:142023', '02-17 10:37:342023', '01-03 15:42:392023', '08-05 11:18:162024', '24 hours. CellSystems GmbH Junkersring 5 53844', '49 (0) 2241.25515 – 0 Fax +49 (0) 2241.25515']"
fertan.de,[''],[''],['saarbrücken'],['66115'],[''],['14'],['14 Saarbrücken 66115']
sprachrausch.com,[''],[''],[''],[''],['98298050 fax 0251'],['97567195'],"['0251 98298050 Fax 0251 97567195', '12 48149']"
papiernetz.de,[],[],[],[],[],[],"['148 | 10117', '148, 10117', '166925090']"
nature-trails-events.de,[],[],[],[],[],[],"['2 , 73489']"
hotelcult.de,[],[],[],[],[],[],['56 60599']
horst-busch.de,[],[],[],[],[],[],"['37 21079', '25 25524']"
werbemax.de,[],[],[],[],[],[],"['3 83123', '3 83123']"
casino-poker-manager.com,[],[],[],[],[],[],['6 82008']
charcotfootcourses.org,[],[],[],[],[],[],['3148431']
malteserjugend-trier.de,[],[],[],[],[],[],"['29a 54292', '29a 54292']"
mercoline.de,[],[],[],[],[],[],"['49 30-436589-0 KONTAKT+49 (0)30-436589', '49 (0)30-436589']"
german-pellets.de,[],[],[],[],[],[],"['2a23970', '2a23970']"
kalthoff-kollegen.de,"['', '', '', '', '']","['', '', '', '', '']","['', '', '', '', '']","['', '', '', '', '']","['0', '99', '+49(0)2871 229108', '15d-40699', '03']","['20 64 / 41 200t +49(0)2064 41200', '33t +49(0)281 339933', '8', '11', '422t +49(0)211 2503422']","['5723946', '12.04.202411', '11.04.202411', '671. (DGUV / STB Web)Artikel vom: 11.04.202411', '11.04.202410', '226 cD-46539', '200T: +49 (0) 20 64 / 41 200T: +49(0)2064 41200', '4D-46485', '33T: +49 (0) 281 / 33 99 33T: +49(0)281 339933', '10D-46397', '49 (0) 28 71 / 229 10 88T: +49(0)2871 2291088', '11 - 15D-40699', '49 (0) 211 / 25 03 422T: +49(0)211 2503422']"
filmconfect.com,[],[],[],[],[],[],['26-5314482']
genver.de,[''],[''],['velen'],['46342'],[''],['0 2863-95697'],"['49 (0) 2863-95697', '49 (0) 2863-95697', '49 (0) 2863-95697', '1 46342 Velen Tel.: +49 (0) 2863-95697', '90 Fax: +49 (0) 2863-95697']"
leon-nanodrugs.com,[],[],[],[],[],[],"['19 D-82152', '19, D-82152']"
junges-uno-netzwerk.de,[],[],[],[],[],[],['26/27 - 10969']
tacalyx.com,[],[],[],[],[],[],['11 12489']
awchamburg.org,[],[],[],[],[],[],['13 04 0520104']
kulmens.de,[''],[''],[''],[''],['altstadt'],['192-19384028'],"['1992 | Altstadt 192-193, 84028', '1992 Altstadt 192-19384028']"
flugsam.de,[],[],[],[],[],[],['000 426 Top KONTAKT FLUGSAMFruchtallee 23D-20259']
mylsp.de,[],[],[],[],[],[],"['7 - 7a, 40880']"
demoup-cliplister.com,[''],['ma'],['cambridge'],['02141'],['first street'],['25'],"['25 First Street, 2nd Floor, Cambridge, MA 02141']"
k-konzept.de,[],[],[],[],[],[],"['9272-0 Tobias Rethmeierhallo@k-konzept.de05231', '5132758']"
container-xchange.com,[''],[''],[''],[''],['40'],['808133747'],"['7320457', '49 40 808133747']"
brainseeker.de,[],[],[],[],[],[],"['25 22305', '8b 25462']"
fame-creativelab.com,[''],[''],[''],['60314'],['•'],['146'],"['27 • 60316', '146 • 60314']"
kwon.com,[''],[''],[''],['08139'],['uhr'],['8-18'],['8-18 Uhr 08139']
lichtundschatten-3d.de,[],[],[],[],[],[],['3d.de Telefon: +49 (0)2294 992547']
bzweic.de,[''],[''],[''],[''],['12 > 07021'],['738910'],['1 2 3 4 5 6 7 8 9 10 ... 12 > 07021 738910']
friedrichskoog.de,[''],[''],[''],['25718'],['deichpassage'],['141'],"['9° Buchungshotline +49 (0)4854 219010', '141 (Deichpassage) 25718', '49 (0)4854 219010 Telefax: +49 (0)4854 21901']"
elsa-frankfurt.de,[],[],[],[],[],[],['59 15230']
vsb.energy,[''],[''],[''],['21183'],['fax +49'],['351'],"['3 a01069 Dresden Telefon: +49 351 21183', '400 Fax: +49 351 21183']"
photokina.de,[],[],[],[],[],[],['13300 Element 12300 EN DE DE Element 13300']
das-beste-in-frankreich.de,[],[],[],[],[],[],['11 44229']
pikasslifestyle.com,[''],[''],['ketsch'],['68775'],[''],['12'],"['06202/5907800', '12 68775 Ketsch Telefon: +49 6202 5907800']"
klingel-med.de,[],[],[],[],[],[],['5-7 | 75181']
venista-ventures.com,[''],[''],[''],['50674'],['c/o wework'],['6'],['6 (c/o WeWork) 50674']
geco-event.com,[''],[''],[''],['68199'],['kiesteichweg'],['21'],"['10:00 – 21:00 Büro Kiesteichweg 21 68199', '49 621 86196']"
fs-etit.de,[],[],[],[],[],[],"['10 Raum 105Landgraf-Georg-StraÃ\x9fe 464283', '06151 1621860']"
ppro.com,[],[],[],[],[],[],"['240px"",""images"":[{""image"":{""ID"":34876,""id"":34876', '280px"",""images"":[{""image"":{""ID"":35649,""id"":35649', '250px"",""images"":[{""image"":{""ID"":35649,""id"":35649', '60%"",""images"":[{""image"":{""ID"":35649,""id"":35649', '120px"",""images"":[{""image"":{""ID"":35649,""id"":35649', '280px"",""images"":[{""image"":{""ID"":35649,""id"":35649', '200px"",""images"":[{""image"":{""ID"":36963,""id"":36963', '260px"",""images"":[{""image"":{""ID"":36963,""id"":36963', '0px"",""images"":[{""image"":{""ID"":36963,""id"":36963', '0px"",""images"":[{""image"":{""ID"":36963,""id"":36963', '36963,""id"":36963', '80px"",""images"":[{""image"":{""ID"":36963,""id"":36963', '360px"",""images"":[{""image"":{""ID"":36232,""id"":36232', '360px"",""images"":[{""image"":{""ID"":36232,""id"":36232', '0px"",""images"":[{""image"":{""ID"":36232,""id"":36232', '0px"",""images"":[{""image"":{""ID"":36232,""id"":36232', '0px"",""images"":[{""image"":{""ID"":36232,""id"":36232', '200px"",""images"":[{""image"":{""ID"":36232,""id"":36232', '200px"",""images"":[{""image"":{""ID"":35013,""id"":35013', '0px"",""images"":[{""image"":{""ID"":35013,""id"":35013', '0px"",""images"":[{""image"":{""ID"":35013,""id"":35013', '50px"",""images"":[{""image"":{""ID"":35013,""id"":35013', '200px"",""images"":[{""image"":{""ID"":35013,""id"":35013', '360px"",""images"":[{""image"":{""ID"":35022,""id"":35022', '0px"",""images"":[{""image"":{""ID"":35022,""id"":35022', '0px"",""images"":[{""image"":{""ID"":35022,""id"":35022', '0px"",""images"":[{""image"":{""ID"":35022,""id"":35022']"
connectivisten.de,[],[],[],[],[],[],"['1 60327', '47 64295']"
bishop-gmbh.com,[],[],[],[],[],[],"['46 20354', '110801 20408']"
novostrat.com,[],[],[],[],[],[],"['59 26816', '59 26816', '10D 610202', '10D 610202', '59 26816', '10D 610202']"
lalelu.de,[''],[''],[''],['20245'],['31 januar'],[''],['31. Januar 20245']
apartment-hotel.de,[''],[''],['hamburg'],['20537'],['•'],['133'],"['2Gültigkeit: 01.12.20203', '133 • 20537 Hamburg • Tel: 040-211150']"
ideenpla.net,[],[],[],[],[],[],"['2,D - 85229']"
m-und-h.de,[''],[''],[''],['10623'],['hardenbergstr.'],['19'],"['49 30 311889', '0E-MailM&H Group Hardenbergstr. 19 10623']"
purchaze.com,"['', '', '', '']","['', '', '', '']","['', '', '', '']","['', '', '', '']","['essential', 'essential', 'essential', 'essential']","['616730', '749766', '616730', '616730']","['17, 26607', '1 SE (881101', '90 Essential (616730', '90 (325213', '801)Orangeavailable140 € Nike Air Vortex (903896', '95 Essential (749766', '90 Essential (616730', '103)Whiteavailable85 € Nike Roshe Two (844656', '660)Redavailable100 € Nike Juvenate (724979', '001)Blackavailable85 € Nike Roshe One (511881', '89 (844888', '90 Essential (616730', '022)Greyavailable140 € Nike Air Max 1 (308866']"
caddycool.com,[''],[''],[''],['31683'],['de'],['42a'],['42a DE 31683']
laokoongruppe.com,[],[],[],[],[],[],['2014-08-242021']
sauber-man.com,[],[],[],[],[],[],['089 / 96061345']
poggemoeller.co,[],[],[],[],[],[],['7 80797']
innovative-navigation.de,[],[],[],[],[],[],"['11, 70806']"
postuning.com,"['', '']","['', '']","['', '']","['32107', '36965']","['│', '0']","['8', '5222']","['8 │ 32107', '49 5222 36965', '49 (0)5222 36965']"
weigelworld.org,"['', '', '', '', '', '', '', '']","['', '', '', '', '', '', '', '']","['', '', '', '', '', '', '', '']","['522024', '152024', '002024', '392023', '002023', '002023', '002023', '082023']","['15', '14', '12', '13', '15', '15', '15', '14']","['36', '08', '44', '01', '22', '28', '32', '56']","['02-09 15:36:522024', '2024/03/20230711161041__MG_02262', '07-11 14:08:152024', '06-26 12:44:002024', '12-02 13:01:392023', '10-04 15:22:002023', '09-26 15:28:002023', '09-15 15:32:002023', '07-01 14:56:082023', '023-06062', '024-01715', '100029859']"
schwimmbad-schmierer.de,[''],[''],[''],['900516'],['900516-0 fax +49 0'],['711'],"['0711-900516', '6 70736', '49 (0)711 – 900516-0 FAX: +49 (0)711 – 900516']"
simple-fax.de,[],[],[],[],[],[],['97 Eingesparte Seiten Papier 15234']
elsmannimmobilien.de,"['', '', '', '', '']","['', '', '', '', '']","['', 'bocholt', '', 'emmerich-elten', '']","['', '02871', '', '46446', '']","['anholt', 'kalkar', 'anholt', '', '2828']","['02874', '02824-965211', '02874-902572', '15', '903699']","['02828-92199 Kalkar: 02824-965211 Anholt: 02874', '902572 Droomhuis/NL: +31 26-4951666', '02828-92199 Kalkar: 02824-965211 Bocholt: 02871', '2945633 Anholt: 02874-902572', '31 26-4951666', '15 46446 Emmerich-Elten Tel. +49 (0)2828 92199', '49 (0)2828 903699']"
markengold.de,[],[],[],[],[],[],"['107, 10119']"
global-mobility.com,"['', '', '']","['', '', '']","['', '', '']","['', '', '63526']","['at +49 6181 440888', '6181', '28 ·']","['24/7', '440888', '']","['19 solutions Contact +49 6181 440888', '24/7 at: +49 6181 440888', '7 63457', '28 63526', '49 6181 440888', '28 · 63526']"
per4med.de,[],[],[],[],[],[],"['26; 13597', '44; 20457']"
kreutzer-consulting.com,[],[],[],[],[],[],['10980337']
cpl-sachse.de,[''],[''],['berlin'],['343462'],[''],['14'],"['14 13627 Berlin, Germany Phone: +49 30 343462', '60 Fax: +49 30 343462']"
k-is.com,"['', '', '', '', '', '', '', '']","['', '', '', '', '', '', '', '']","['', '', '', '', '', '', '', '']","['532024', '442024', '20244', '022024', '022024', '162024', '392024', '592024']","['15', '14', 'auf der dmea', '16', '16', '16', '14', '16']","['53', '09', '10', '10', '36', '32', '58', '09']","['04-11 15:53:532024', '04-08 14:09:442024', '10 ist da!steadyPRINT auf der DMEA 20244', '04-04 16:10:022024', '03-20 16:36:022024', '03-14 16:32:162024', '2024Microsoft hat mit der CVE-2024-21407', '2024-21408', '03-14 14:58:392024', '2024Microsoft hat mit der CVE-2024-26198', '03-13 16:09:592024', '33-35, D-57078 Siegen | Tel.: +49 271 31370']"
intercard.org,"['', '']","['', '']","['dresden', 'köln']","['31558', '92576']","['', '']","['351', '2203']","['10 D-78054', '49 7720 99450', '114 – 116 D-01219 Dresden Telefon: +49 351 31558', '183 D-51147 Köln Telefon: +49 2203 92576']"
sternen-schluchsee.de,[],[],[],[],[],[],['1 D-79859']
seat.de,[],[],[],[],[],[],"['3-5 in 64331', '57, 38112', '1, D-73760']"
hbo2.de,[],[],[],[],[],[],"['11679104', '3176137', '18/169115']"
laufpix.de,"['', '', '', '']","['', '', '', '']","['', '', '', '']","['', '12017', '12016', '12012']","['paderborner osterlauf', 'paderborner osterlauf 5km', 'paderborner osterlauf 5km', 'hermannslauf']","['5', '2', '2', '2']","['5 km - 2 Paderborner Osterlauf - 5 km - 12018', '5km - 2 Paderborner Osterlauf - 5km - 12017', '5km - 2 Paderborner Osterlauf - 5km - 12016', '2 Hermannslauf - 12012']"
kuriershop.de,[],[],[],[],[],[],"['2004-2024 STARK GmbH, 61440']"
lysicom.de,[],[],[],[],[],[],['31 75173']
regupol.com,[],[],[],[],[],[],['24 57319']
unimed.de,[],[],[],[],[],[],['17-1966687']
miet24.de,"['', '', '']","['', '', '']","['vogue', '', '']","['10711', '10711', '10711']","['d275', 'amg line', 'amg line*']","['', '250', '250']","['1,0 TSI OPF DSG 10711', '3.0 Diesel (D275) Vogue 10711', '118i 10711', '250 4MATIC AMG Line 10711', '250e Hybrid Limousine AMG Line 10711', '79,00 EUR BMW 420d Cabrio M-Sport* 10711', '999,00 EUR BMW 330i Touring M-Sportpaket* 10711', '829,00 € /Monat BMW X2 XDrive20i M-Sport* 10711', '250 4MATIC AMG Line* 10711', '2-leitig 74382']"
europarc.org,[''],[''],[''],[''],['0 941 5993598'],['0'],"['6, 93047', '49 (0)941 59935980']"
himmelspagode.de,"['', '']","['', '']","['hohen neuendorf fon', '']","['03303', '03303']","['', '0 fax']","['3', '27']","['3 16540 Hohen Neuendorf Fon: 03303', '3 16540', '03303 – 21 27 0 Fax: 03303']"
raysono.com,"['', '', '']","['', '', '']","['', '', '']","['13357', '60327', '51069']","['böttgerstr.', 'schleusenstr.', 'urnenstr.']","['16', '15', '2']","['32 80337', '89-746 46-0 Office Berlin Böttgerstr. 16 13357', '746 46-0 Office Frankfurt Schleusenstr. 15 60327', '49 89-746 46-0 Office Köln Urnenstr. 2 51069']"
ifabrik.de,[],[],[],[],[],[],"['15, 04105 Leipzig+49 341 355430', '15, 04105 Leipzig+49 341 355430']"
plu.de,"['', '']","['', '']","['', '']","['91690', '81241']","['89', 'landsberger straße']","['2323', '392']","['49 89 2323 91690', '49 89 2323 91690 Landsberger Straße 392 81241', '392 (1. OG) D 81241']"
acxiom.de,[],[],[],[],[],[],['8219001690227893518-395829645441444427']
yummystories.de,[''],[''],[''],[''],['6323'],['9869180'],['49 6323 9869180']
chameleon-system.de,[],[],[],[],[],[],"['10-14 79098', '49-761-1518280']"
ho-ersoka.de,[],[],[],[],[],[],"['08731/74032071', '24 84130']"
brandperfection.de,[],[],[],[],[],[],"['32, 70734']"
energiekontor.de,[],[],[],[],[],[],"['5 28359', '5 28359']"
printus.de,[],[],[],[],[],[],['730000070003486421-2094720022610370']
borgmann-krefeld.de,[],[],[],[],[],[],"['151-155 47803', '45 47803', '32-33 47803', '151 47803', '151 47803', '151-155 47803', '45 47803', '32-33 47803', '151 47803', '151 47803', '57, 38112', '57, 38112', '151-155 47803']"
berlinlofts.com,"['', '', '', 'germany +4915121219126']","['', '', '', '']","['', '', '', 'berlin']","['', '', '', '10559berlin']","['mobile +4915121219126', 'mobile +4915121219126', 'mobile +4915121219126', '']","['4915121219126', '4915121219126', '4915121219126', '60']","['4915121219126 Mobile: +4915121219126', '493039887485', '4915121219126 Mobile: +4915121219126', '493039887485', '4915121219126 Mobile: +4915121219126', '493039887485', '60 10559Berlin Berlin Germany +4915121219126', '4915121219126 +493039887485']"
microdoc.com,[],[],[],[],[],[],['6a81925 MunichGermanyPhone: +49-89-551969']
pferdebild.de,"['', '']","['', '']","['ganderkesee', '']","['27777', '27777']","['', 'heider weg']","['04221/40910', '42']","['42 27777 Ganderkesee Telefon: 04221/40910', '04221/452842', '2024 + Tammo & Hanni Ernst, Heider Weg 42, 27777']"
reiseservice-heinz.de,[''],[''],[''],[''],['notfall-hotline+ 49'],['178 2654579'],"['49 8761 72790 Notfall-Hotline+ 49 178 2654579', '16 85368', '16, 85368', '49 8761 72790', '49 8761 72790', '49 178 2654579']"
kiwi.de,[],[],[],[],[],[],"['49 541668', '1449088', '203007UST-IdNr. DE264553525', '14 | 49088']"
porsche-design.com,[''],[''],[''],[''],['711 911 7555'],['0'],['49 711 911 75550']
aqon-pure.com,[],[],[],[],[],[],['2464625']
abcadamas.de,[''],[''],['steinfurt'],['-1095665'],['3 de'],['03222'],"['03222 1095665', '3 DE - 48565 Steinfurt Tel. 03222 -1095665', '03222 -1095528']"
kobra-net.de,[''],[''],[''],['180rutesheimer'],['straße'],['53 in 71229'],['56 94 180Rutesheimer Straße 53 in 71229']
hesse-mechatronics.com,"['', '', '', '']","['', '', '', '']","['', '', '', '']","['282023', '062023', '472024', '002024']","['10', '09', '09', '08']","['10', '32', '00', '00']","['12-12 10:10:282023', '12-12 09:32:062023', '12-12 09:00:472024', '12-12 08:00:002024', '5 D-33104']"
kompakt.fm,['39232281'],[''],['pias'],['2xlp'],[''],[''],"['12"" SR231207', '12"" FJAAK011 13,80 € Incl. VAT 65f1977475746', '12"" UR-071 16,50 € Incl. VAT 655e275e38410', '12"" GGC1 21,90 € Incl. VAT 65e985b202559', '12"" AKLTD005 12,80 € Incl. VAT 6601834902910', '12"" GR-12118', '2LP) Pias 2xLP PIAS 39232281', '12"" AOW001 17,50 € Incl. VAT 65b11a9c59343', '093 14,90 € Incl. VAT 65baa21399903', '12"" barn095 14,90 € Incl. VAT 65d79cd305678']"
airnergy.shop,[],[],[],[],[],[],"['02242 93300', '02242 93300', '02242 93300', '02242 93300', '02242 93300', '02242 93300', '02242 93300', '02242 93300', '02242 93300', '24-26 53773']"
jk-kom.de,[],[],[],[],[],[],"['118, 10963', '16, 60311', '8, 20355']"
schmeckthal-gruppe.de,[],[],[],[],[],[],['4 55252']
rbvc.com,"['', '', '', '']","['', 'ca', '', 'ma']","['', 'sunnyvale', '', 'boston']","['', '94085', '', '02111']","['(711) 811-5461', 'santa trinita avenue', 'rothschild boulevard tel aviv', 'lincoln street']","['3', '384', '6688106', '1']","['2, 70499', '49 (711) 811-54613', '10, 60325', '49 (69) 7191609', '384 Santa Trinita Avenue, Sunnyvale, CA 94085', '3 Rothschild Boulevard, Tel Aviv 6688106', '1 Lincoln Street, 24th Floor, Boston, MA 02111']"
coi.de,[],[],[],[],[],[],['18 91052']
merantix.com,[],[],[],[],[],[],['3 | AIÂ Campus13355']
delphi-advisors.com,[],[],[],[],[],[],"['22, 60311']"
cmc-silenta.com,[],[],[],[],[],[],['31 / 79111']
meeresblick-baabe.de,"['', '']","['', '']","['baabe', 'baabe']","['038303', '038303']","['', '']","['', '2']","['218586 BaabeBüro Baabe: (038303', '2 18586 Baabe(038303']"
mergeflow.com,[''],[''],[''],[''],['2015 and 27018'],['27017'],"['27001:2013, 27017:2015, and 27018']"
esome.com,[],[],[],[],[],[],['11 20354']
dts.de,[],[],[],[],[],[],['2D - 32051']
diekavallerie.de,"['', '']","['', '']","['', '']","['', '07071']","['407290', 'tübingentelefon']","['07071', '8/172070']","['20 Jahre DIE KAVALLERIE. 061123', '07071 407290', '8/172070 TübingenTelefon 07071']"
shows-artists.com,[],[],[],[],[],[],['45 81541']
mehrfachsparen.de,"['', '', '']","['', '', '']","['lutherstadt', '', '']","['03491', '03491', '06888']","['wittenbergtel.', '3848084fax', 'hauptstr.']","['', '01577', '5 |']","['506888 Lutherstadt WittenbergTel.: 03491', '7691086Mobil: 01577 3848084Fax: 03491', '2024 | Lutz Müller | Hauptstr. 5 | 06888', '03491 7691086 | Fax: 03491 6519963']"
hochschwarzwald.de,[],[],[],[],[],[],['1 · 79856']
antondoll.de,"['', '']","['', '']","['', '']","['180538', '']","['thierschstraße', '89']","['', '41616366']","['79,00 Unser Ladengeschäft Thierschstraße 180538', '49 (89) 41616366']"
claritos.de,[],[],[],[],[],[],"['7, 20354', '7 20354']"
impreg.de,[],[],[],[],[],[],"['49 7073 30031', '1 844 611-5321 Asia&Pacific +86 512 33060131']"
visionconnect.de,[],[],[],[],[],[],"['49 511 76071', '26 30161']"
lps-laser.de,[],[],[],[],[],[],"['18 72131', '18 72131']"
drmannahs.com,[''],[''],[''],[''],['0'],['30 2936378'],"['4.933333333', '4.863636364', '7 | Halle B414974', '49 (0)30 2936378']"
xell.ag,"['', '']","['', '']","['', '']","['96989', '33758']","['96989-200 +49 0', 'waldweg']","['521', '21']","['1 33689', '49 (0)521 96989-200 +49 (0)521 96989', '201 fax Xell AG Waldweg 21 33758']"
hitchon.de,[''],[''],['mainz'],['55120'],[''],['27'],"['27 55120 Mainz +49 6131 2077006', '11822767']"
horizont.com,[],[],[],[],[],[],['4-6 34497']
artaqua.de,"['', '', '', '', '', '', '', '', '', '', '', '', '', '', '', '']","['', '', '', '', '', '', '', '', '', '', '', '', '', '', '', '']","['', '', '', '', '', '', '', '', '', '', '', '', '', '', '', '']","['372021', '342021', '452021', '352021', '182021', '302021', '502021', '142021', '372021', '342021', '452021', '352021', '182021', '302021', '502021', '142021']","['10', '10', '09', '14', '16', '16', '16', '16', '10', '10', '09', '14', '16', '16', '16', '16']","['26', '11', '53', '41', '38', '37', '09', '06', '26', '11', '53', '41', '38', '37', '09', '06']","['49 7147 27273', '12-02 10:26:372021', '12-02 10:11:342021', '12-02 09:53:452021', '12-01 14:41:352021', '03-18 16:38:182021', '03-18 16:37:302021', '03-18 16:09:502021', '03-18 16:06:142021', '12-02 10:26:372021', '12-02 10:11:342021', '12-02 09:53:452021', '12-01 14:41:352021', '03-18 16:38:182021', '03-18 16:37:302021', '03-18 16:09:502021', '03-18 16:06:142021']"
ernstings-family.com,[''],[''],['grössen'],['140'],['56-164kreativ & happy56-9298-128134'],[''],['140 Grössen 56-164Kreativ & happy56-9298-128134']
ihs-gmbh.de,[],[],[],[],[],[],['2 71522']
severn.de,"['', '', '']","['', '', '']","['', '', '']","['20235', '20235', '20235']","['april', 'april', 'april']","['5', '5', '5']","['5. April 20235', '5. April 20235', '74 60437', '5. April 20235']"
neschen.de,[],[],[],[],[],[],['1 31675']
vr-on.com,[],[],[],[],[],[],['20 | 80639']
hohnwerbetechnik.com,[],[],[],[],[],[],"['4 - 74223', '8/1 - 74232']"
kmbmedia.de,"['', '']","['', '']","['', '']","['58095', '59067']","['hamm | grabenstr.', 'kmb media werbeagenturhafenstraße']","['5b •', '14 •']","['14 • 59067 Hamm | Grabenstr. 5b • 58095', '2023 KMB Media WerbeagenturHafenstraße 14 • 59067', '5b • 58095 Hagen*protected email*02381']"
schnatterer.com,"['', '', '']","['', '', '']","['bruchsal', '', '']","['', '', '']","['', '7251', '7251']","['308355', '308355', '308356']","['276646 Bruchsal Telefon+49 (0) 7251 - 308355', '0 Immobilien 90000', '2, 76646', '49 (0) 7251 - 308355', '49 (0) 7251 - 308356']"
awantego.com,"['', '']","['', '']","['', '']","['', '']","['fax +49 0', '0']","['711/48890', '711/48890']","['49-711-4889050', '65 - 70176', '49(0)711/48890-50 Fax: +49(0)711/48890', '49(0)711/48890', '65 70176']"
r2p.com,[''],[''],[''],[''],['31de'],['24941'],['31DE 24941']
china-outbound.com,[],[],[],[],[],[],"['57, 22081']"
ps-antriebstechnik.de,[],[],[],[],[],[],"['29 D-76698', '49 7251 96280']"
uhlmann.de,[],[],[],[],[],[],['14 - 18 88471']
lagerflaeche.de,"['deutschland', '']","['', '']","['angebot', '']","['08371', '40472']","['', 'ort']","['9810', '10']","['9810 Angebot Deutschland 08371', '10 Ort: 40472', '49 (0) 211-976334-70 Fax: +49 (0) 211-976334']"
gfn.de,"['', '', '']","['', '', '']","['', '', '']","['06221', '06221', '06221']","['uhr', 'uhr', 'uhr']","['8-19', '8-19', '8-19']","['8-19 Uhr 06221', '8-19 Uhr06221', '8-19 Uhr 06221', '8-19 Uhr06221', '8-19 Uhr 06221']"
drk-rhein-nahe.de,[],[],[],[],[],[],['26/674/03711']
scoop-yard.de,[''],[''],[''],[''],['hamburg telefon'],['040 51315539'],['40A 20253 Hamburg Telefon: 040 51315539']
billig-banner24.de,[],[],[],[],[],[],['175 20539']
starface.com,[],[],[],[],[],[],"['6176137', '49 721 50959']"
agbf.com,[],[],[],[],[],[],"['4-Zimmer Neubauwohnung Objekt Nr: J13549', '4 Zimmer Eigentumswohnung Objekt Nr: R14035', '2 Zimmer mit Neidgarantie Objekt Nr: R14445', '30er Villa in Falkensee Objekt Nr: R14410', '3-Zimmer Wohnung mit Balkon Objekt Nr: R14510', '1514169']"
sea-distribution.com,[''],[''],[''],['5903'],['9388-00000 +49 5903 9388-000'],['00'],['49 5903 9388-00000 +49 5903 9388-00000']
fastbolt.com,[],[],[],[],[],[],['4 D-48599']
mfg.de,[''],[''],[''],['90715'],['stuttgart'],['0711'],['470174 Stuttgart 0711 90715']
berlin-partner.de,[],[],[],[],[],[],"['16.04.202416', '2024linkBerlin-Partner-Welcome-Breakfast 202418']"
fgk-cro.com,[],[],[],[],[],[],['35 80339']
junge-presse.de,[''],[''],[''],['12000'],['4350 erfolgreiche veranstaltungen'],['0'],['0 4350 Erfolgreiche Veranstaltungen 0 12000']
ms-holz.de,[],[],[],[],[],[],['42-44 65205']
stefan-plenk.com,"['', '']","['', '']","['', '']","['08652', '']","['berchtesgadentel.', 'berchtesgadentel.']","['6 1/283471', '08652-964970']","['6 1/283471 BerchtesgadenTel.: 08652', '6 1/2 | 83471 BerchtesgadenTel.: 08652-964970']"
a-maze.net,[],[],[],[],[],[],"['153, 10115']"
fesa.de,[],[],[],[],[],[],['5A 79098']
microsonic.de,[],[],[],[],[],[],"['7 44263', '7 44263']"
ihk-party.de,[''],[''],[''],['80689'],['landsbergerstr.'],['185'],"['13,-NACHTGALERIE - Landsbergerstr. 185 - 80689']"
lufapak.de,[''],[''],[''],[''],['& 14001'],['9001'],"['9001 & 14001', '20 56566']"
porzellanklinik-bremen.de,[],[],[],[],[],[],['0421 - 6588557']
hils-it.com,[],[],[],[],[],[],['16 78078']
pulscamp.de,[''],[''],['berlin'],['10317'],[''],['43526596'],['53 10317 Berlin Tel: 0176 43526596']
jungmann.de,[''],[''],['buxtehude'],['54044'],[''],['4161'],"['48-50 D-21614 Buxtehude Tel.: +49 4161 – 54044', '0 Fax: +49 4161 – 54044']"
schmidtner-gmbh.de,[],[],[],[],[],[],['62 04 40 22404']
sobis.com,[],[],[],[],[],[],['8 68309']
gid-it.de,"['', '', '']","['', '', '']","['', 'köln', 'augsburg']","['25849', '50679', '86159']","['0', '', '']","['821', '837902', '33']","['49 (0) 221-837902', '0 Customer Care Center +49 (0) 821 25849', '5 50679 Köln Tel. 0221 837902', '33 86159 Augsburg Tel. 0821 25849']"
cheplapharm.com,[],[],[],[],[],[],['24 17489']
flymo.com,"['', '', '', '']","['', '', '', '']","['', '', '', '']","['', '', '', '']","['simplimow', 'simplimow', 'product code', 'product code']","['300', '320', '970715101', '970715201']","['340R KIT 2.0 Product Code: 970538301', '230 - BARE UNIT Product Code: 970638401', '380R KIT 4.0 Product Code: 970539001', '260 - BARE UNIT Product Code: 970544501', '966952301 EasiGlide 360 Product Code: 970483201', '270 Product Code: 967965801', '500E Product Code: 967241401', '18V SimpliMow 300 Product Code: 970703401', '18V SimpliMow 320 Product Code: 970703601', '300 KIT 4.0 Product Code: 970703501', '320 KIT 4.0 Product Code: 970703701', '600 Product Code: 970620501', '800 Product Code: 970620701', '1200 Product Code: 970715101', '1500 Product Code: 970715201']"
cast-pharma.com,"['', '', '']","['', '', '']","['', '', '']","['572024', '222023', '062024']","['12', '12', '13']","['32', '53', '16']","['11-17 12:32:572024', '10-24 12:53:222023', '10-17 13:16:062024']"
fcstpauli-afm.de,[],[],[],[],[],[],['040.38661910']
drivedevilbiss-int.com,[],[],[],[],[],[],"['3 68309', '3 68309']"
testboy.de,[''],[''],[''],[''],['fax +49 0'],['4441 / 84536'],"['49 (0)4441 / 89112-10 Fax: +49 (0)4441 / 84536', '3 | D- 49377']"
weareforeal.com,[],[],[],[],[],[],"['2-4, 54290']"
pyrotechnik24.com,[],[],[],[],[],[],['10 D-12277']
thestrategyweb.com,"['', '', '', '', '', '', '', '', '', '']","['', '', '', '', '', '', '', '', '', '']","['', '', '', '', '', '', '', '', '', 'eresing']","['292020', '202020', '272020', '102023', '482019', '542019', '142018', '412018', '552018', '86922']","['16', '13', '18', '17', '14', '15', '17', '10', '11', '']","['44', '42', '54', '13', '33', '17', '40', '52', '43', '3c']","['06-17 16:44:292020', '05-18 13:42:202020', '02-20 18:54:272020', '02-06 17:13:102023', '03-13 14:33:482019', '01-31 15:17:542019', '08-24 17:40:142018', '08-01 10:52:412018', '06-07 11:43:552018', '3c, 86922 Eresing, Tel. 08193-9974127', '49 (0)171-9577828']"
freizeichen.com,[],[],[],[],[],[],['7140215']
bonn.de,[''],[''],['bonn'],['53111'],[''],['253103'],['253103 Bonn (Postanschrift)53111']
calw.de,[],[],[],[],[],[],['7 75365']
visomax.de,[],[],[],[],[],[],"['49 931 452814', '2 - 4 D-97297', '49 931 452814 0 Fax: +49 931 452814']"
digitaleheimat.de,[],[],[],[],[],[],['9 12435']
cosmetix.net,[],[],[],[],[],[],['49 170 5053906']
slf-fraureuth.de,[],[],[],[],[],[],['5 08427']
rw-kupplungen.de,[],[],[],[],[],[],"['4 63939', '4 63939', '4 63939']"
smartmedia24.de,"['', '', '', '']","['', '', '', '']","['menden', 'menden', 'menden', 'menden']","['02373', '02373', '02373', '02373']","['1458708', '1458708', '1458708', '1458708']","['', '', '', '']","['1458708 Menden 02373', '1458708 Menden 02373', '1458708 Menden 02373', '1458708 Menden 02373']"
webanizer.de,[],[],[],[],[],[],"['5, D-84359']"
edias.com,[],[],[],[],[],[],['31-172-585585']
undercover.de,[],[],[],[],[],[],['5 38179']
pattern-paradise.com,[],[],[],[],[],[],"['201912 Weeks of Christmas CAL 201812', '201712 Weeks of Christmas CAL 201612']"
neuromerchandisinggroup.com,[''],[''],[''],[''],['elementor-page elementor-page-14468'],['15918'],"['15918,elementor-page elementor-page-14468', '61 // d-60329']"
jena-optronik.de,[],[],[],[],[],[],['3 07745']
h2fly.de,[],[],[],[],[],[],['29370327']
saarcamp.de,[],[],[],[],[],[],['1466123']
targetesports.com,[],[],[],[],[],[],"['123 46117', '123, 46117', '123 46117', '123 46117']"
rapidshape.de,[''],[''],[''],[''],['7033'],['309878'],"['21 71296', '49 7033 309878']"
modusconsult.de,[],[],[],[],[],[],"['16.04.202410', '25.09.202409']"
springmaus-theater.de,[],[],[],[],[],[],['8 -10 53121']
conflict-minerals.com,"['', '', '']","['', '', '']","['', '', '']","['72760', '', '27001']","['58 ·', '7121 1448960 · f +49 7121 1448989', '2015 iso/iec']","['', '49', '9001']","['49 7121 14489', '58 · 72760', '49 7121 1448960 · F +49 7121 1448989', '9001:2015 ISO/IEC 27001']"
bureau-heintz.de,[],[],[],[],[],[],['109 70180']
fertighaus-keitel.de,[],[],[],[],[],[],['23 74585']
daniel-philipp.com,[''],[''],[''],[''],['5816oberbilker alle'],['5540223'],"['55, 40223', '6, 40476', '197d, 50825', '5, 45130', '98, 47799', '52, 53227', '140, 47057', '49 211 5668 5816Oberbilker Alle 5540223']"
artviper-werbeagentur.de,[],[],[],[],[],[],['18 92637']
inovix.net,[''],[''],['derby'],['417633'],['friar gate'],['83'],"['83 Friar Gate Derby, DE1 1FL 01332 417633']"
dscsoundandlighting.co.uk,"['', '']","['', '']","['', '']","['', '']","['606066', '606066']","['01582', '01582']","['01582 606066', '01582 606066']"
christengemeinde.com,[],[],[],[],[],[],"['44, 48527']"
neseafood.com,[],[],[],[],[],[],['02565953']
rosybee.com,['united kingdom'],[''],[''],['07710096734'],[''],[''],"['5QH, United Kingdom 07710096734']"
vasek.co.uk,[],[],[],[],[],[],['1288000010175496554-281594930936676430']
boerse-stuttgart.de,"['', '', '', '', '', '', '', '', '', '', '', '', '', '', '', '']","['', '', 'ca', 'ny', 'ca', '', '', '', '', '', '', '', '', '', '', '']","['stuttgart', 'stuttgart', 'mountain view', 'new york', 'palo alto', 'dax', '', 'mdax', 'sdax', '', '', '', '', '', '', '']","['70174', '70174', '94043', '10001', '94304', '17847', '17930', '26576', '14348', '11379', '37892', '17986', '38951', '16721', '', '']","['', '', 'amphitheatre parkway', '34th street', 's. california ave', '-1,05', 'dax®', '-0,13', '-0,84', 'smi', 'citi dow jones', '5108,60 -1,84', 'citi nikkei', 'hang seng', 'eur / gbp', 'eur / chf']","['4', '4', '1600', '', '1601', '21', '22 59', '17 50', '17 50', '3554,82 +0,28 17 36', '17 31', '100', '225', '17 22', '0,85473', '0,97277']","['4 70174 Stuttgart Tel.: +49 711 222985', '30, 69126', '4 70174 Stuttgart Tel.: +49 711 222985', '10 29 32, 70025', '20, 70173', '2763052', '1600 Amphitheatre Parkway Mountain View CA 94043', '34th Street, 18th Floor, New York, NY 10001', '1601 S. California Ave, Palo Alto, CA 94304', '17848,03 -1,05 21:59 L&S DAX 17847', '00 -1,08 22:59 DAX® 17930', '32 -0,13 17:50 MDAX 26576', '47 17:50 TecDAX 3326,26 -0,84 17:50 SDAX 14348', '1,22 21:59 ATX 3554,82 +0,28 17:36 SMI 11379', '58 -0,75 17:31 CITI Dow Jones 37892', '500 5108,60 -1,84 21:06 CITI US TECH 100 17986', '80 -1,62 20:07 Citi Nikkei 225 38951', '94 -1,54 17:22 Hang Seng 16721', '22:03 Währungen Kurs % Zeit EUR / USD 1,06385', '0,81 22:59 EUR / GBP 0,85473', '0,05 23:28 EUR / CHF 0,97277']"
snaresbrookprep.org,[],[],[],[],[],[],['11am). Click Here to book × UA-64890609']
rgr-garages.co.uk,"['', '', '', '', '']","['', '', '', '', '']","['', '', '', '', '']","['', '', '', '100000', '100000']","['750207', '750207', '750207', '80000', '100000']","['01234', '01234', '01234', '90000', '90000']","['01234 750207', '01234 750207', '01234 750207', '3500kg 3500kg + Min Mileage 0 1000 10000 20000', '30000 40000 50000 60000 70000 80000 90000 100000', '100000+ Max Mileage 1000 10000 20000 30000 40000', '50000 60000 70000 80000 90000 100000 100000', '155 ST-Line X 5dr £18,794 Mileage 15628', '1349906', '301 8244 96 | Company Number - 1349906']"
carinaskinnermanagement.co.uk,[''],[''],[''],['20241'],['premiere london 15th feb'],['2'],"['2 Premiere - LONDON 15th FEB 20241', '5744473, VAT registration number 881550121', '2018. Our registration number is ZA317298']"
classichandtools.com,"['', '', '']","['', '', '']","['', '', '']","['', '', '']","['784983', '784983', '784983']","['01473', '01473', '01473']","['90 Register / Sign In Search 01473 784983', '01473 784983', '01473 784983', '04764498']"
kentscp.com,[],[],[],[],[],[],['06991398']
aberdeenpattestservices.com,[''],[''],['inverurie'],[''],['290010'],['01467'],['01224 399173 Inverurie OfficeT: 01467 290010']
newfield.co.uk,[],[],[],[],[],[],"['3TU Tel: 01270 762331', '154659354']"
penn-elcom.com,[''],[''],[''],[''],['27k'],['4052899953079'],"['827-09 Power 24v 27k 4052899953079', '86456944', '80/220-240/24 1-4ch 24v Dim 4052899632059', '50/220-240/24 1-4ch 24v Dim 4052899632066']"
laywheeler.com,"['', '']","['', '']","['', '']","['01473', '01473']","['email protected', 'email protected']","['', '313']","['5LB Sales [email protected] 01473', '313 300 Customer Care [email protected] 01473', '5730318', '637 0806 39 | Data Protection Register: Z7042967']"
cyclesolutions.co.uk,[''],[''],[''],[''],['all rights'],['2023'],"['2023. All Rights Reserved Company No. 05860892', '890948765']"
mcvideo.co.uk,[],[],[],[],[],[],"['01978 350122', '01978 350122']"
cambriancruisers.co.uk,[],[],[],[],[],[],"['7LJ | Tel: 01874 665315', '7LJ info@cambriancruisers.co.uk Tel: 01874']"
fordandslatercoventry.co.uk,[''],[''],[''],['02476'],['4fl'],[''],"['0800 919395', '4FL 02476']"
zeroh.net,[],[],[],[],[],[],['01424 7126250742611511607985635011']
themartialartscentre.com,[],[],[],[],[],[],['01376 529122 / 07967']
rokit.co.uk,[''],[''],[''],['all22632'],['45.00 view'],[''],['45.00 View all22632']
sentiment.io,[''],['ut'],['salt lake city'],['84101'],[''],['5'],"['5 Salt Lake City, UT 84101']"
standard-alarms.com,"['', '', '']","['', '', '']","['', '', '']","['', '', '']","['364832', '364832', '364832']","['01670', '01670', '01670']","['01670 364832', '01670 364832', '01670 364832']"
localedge.co.uk,[''],[''],[''],[''],['1444'],['221571'],['44 1444 221571']
perfectprofilesclinics.co.uk,[''],[''],[''],['01582'],['email protected'],[''],['5ESEmail:[email protected] 01582']
tnsfurniture.co.uk,[''],[''],[''],[''],['814816'],['01562'],['9am until 5pm 01562 814816']
sharondavidson.co.uk,[''],[''],[''],[''],['210436 0170'],['7'],['07712 210436 01707']
wisdomtree.eu,[],[],[],[],[],[],['876000010171092971-171899722413113413']
humphreyfeedsandpullets.co.uk,[''],[''],[''],[''],['828512'],['01691'],"['01691 828512', '828512..YMHOLIADAU01691 828512']"
derby-exp.co.uk,[],[],[],[],[],[],['646100Operations & Re deliveries01332']
iconrelocation.com,[''],[''],[''],[''],['1892'],['600500'],['44 (0)1892 600500']
kcrtransport.co.uk,"['', '', '', '']","['', '', '', '']","['', '', '', '']","['', '', '', '']","['240245', '240245', '240245', '240245']","['01283', '01283', '01283', '01283']","['01283 240245', '01283 240245', '01283 240245', '01283 240245']"
oakwood-estates.co.uk,[],[],[],[],[],[],['6688931. Our VAT number is 978999993']
northern-broadsides.co.uk,[],[],[],[],[],[],"['2024Registered Charity No: 1076764', '1076764']"
wedgwoodvisitorcentre.com,[''],[''],[''],[''],['1782'],['282986'],['9ER +44 (0) 1782 282986']
yazda.org,"['', '', '', '']","['nebraska', 'nebraska', 'nebraska', 'nebraska']","['lincoln', 'lincoln', 'lincoln', 'c.lincoln']","['68503', '68503', '68503', '68503']","['27th street', '27th street', '27th street', '27th street']","['', '', '', '']","['27th Street, Suite C. - Lincoln, Nebraska 68503', '27th Street, Suite C. - Lincoln, Nebraska 68503', '27th Street, Suite C. - Lincoln, Nebraska 68503', '27th Street, Suite C.Lincoln, Nebraska 68503']"
liberis.com,[],[],[],[],[],[],"['7RZ (company number: 05654231', '09897919']"
hankinson.co.uk,"['', '', '', '']","['', '', '', '']","['', '', '', '']","['', '45001', '45001', '']","['532355', 'iso 14001 and iso', 'iso 14001 and iso', '532355']","['03300', '9001', '9001', '03300']","['03300 532355', '9001, ISO 14001 and ISO 45001', '9001, ISO 14001 and ISO 45001', '03300 532355']"
joolsstone.com,[''],[''],[''],[''],['151654'],['07804'],['07804 151654']
digibee.co.uk,[],[],[],[],[],[],['0545862114']
mathews.co.uk,"['', '']","['', '']","['', '']","['01392', '']","['email', '203333']","['01392 203333', '01392']","['01392 203333 HomeTermsContact Us Email: 01392', '01392 203333', '8QG United Kingdomphone 01392']"
washerwise.co.uk,[],[],[],[],[],[],"['07973 618169', '07973 618169', '07973 618169']"
retreathousepleshey.com,[],[],[],[],[],[],['1HACall: 01245 237251']
sure-line.com,[''],[''],[''],[''],['838233'],['01328'],"['01328 838233', '7DQ 01328']"
lewisashleygroup.com,"['', '']","['', '']","['', '']","['', '']","['815310', 'registered in england #04660413']","['01482', '2020']","['01482 815310', '2020. Registered in England #04660413']"
kgd.co.uk,[],[],[],[],[],[],['6JUTel: +44 01432']
sedumgreenroof.co.uk,[''],[''],[''],[''],['6nq'],['07714216889'],"['07714216889', '6NQ 07714216889']"
deekay.co.uk,[],[],[],[],[],[],['2273242. VAT registration no. 510199471']
jeanettekidd.com,"['', '']","['', '']","['lisburn', 'lisburn']","['', '']","['bt28 1au', 'bt28 1au']","['028 92663102', '028 92663102']","['13 Antrim St, Lisburn BT28 1AU (028)92663102', '13 Antrim St, Lisburn BT28 1AU (028)92663102']"
tamba.co.uk,"['', '', '']","['', '', '']","['', '', '']","['', '', '']","['758188', '758188', '758188']","['01543', '01543', '01543']","['01543 758188', '01543 758188', '01543 758188']"
viduppu.com,[''],[''],[''],['86000'],['மணி நேரம் முன்'],['21'],['21 மணி நேரம் முன் 86000']
chequermead.org.uk,[],[],[],[],[],[],"['1165519', '1165519']"
paynes-heating.co.uk,"['', '', '']","['', '', '']","['', '', '']","['', '', '']","['891720', '891720', '891720']","['01825', '01825', '01825']","['01825 891720', '01825 891720', '5JL 01825 891720', '2489842']"
renaultalpine.co.uk,"['', '', '', '']","['', '', '', '']","['', '', '', 'posts']","['50584', '13615', '14886', '98595']","['topics', 'topics', 'topics', '']","['4566', '908', '2114', '16']","['4566 Topics 50584', '908 Topics 13615', '2114 Topics 14886', '16) Statistics Total posts 98595']"
palmunderwear.co.uk,[''],[''],['1455 6353390'],[''],[''],['44'],"['3ER Tel: (44) 1455 632161', '44) 1455 6353390']"
thechillilodge.co.uk,[''],[''],[''],[''],['4rd'],['01226792300'],['4RD 01226792300']
farmgarden.org.uk,[],[],[],[],[],[],"['4EA. Company number: 2011023', '82. Charity Numbers (England & Wales): 294494']"
allinonelondon.com,[''],[''],[''],[''],['1992'],['712609'],['44 1992 712609']
serocor.com,[],[],[],[],[],[],['6254182']
mentorgroup.co.uk,[],[],[],[],[],[],['3UD Company registration No. 2767629']
bosscabins.co.uk,"['', '']","['', '']","['', '']","['', '']","['1778', '1778']","['300475', '300475']","['44 (0)1778 300475', '44 (0)1778 300475']"
stationcars.co.uk,[],[],[],[],[],[],['02086727272']
bsp-if.com,[''],[''],[''],[''],['1473'],['830431'],"['44 (0)1473 830431', '0NL +44 (0)1473 830431', '0NL Tel: +44 (0)1473 830431']"
airtattoo.com,[],[],[],[],[],[],"['1176054', '1176054']"
nuplansurveys.com,[''],[''],['mobile'],['07970'],[''],[''],"['2QG Mobile 07970', '07862500']"
cspc.co.uk,[],[],[],[],[],[],"['0113 2750606', '0113 2750606']"
frostsgardencentres.co.uk,"['', '']","['', '']","['', '']","['01908', '01908']","['until', 'until']","['18 00', '17 30']","['09:00 until 18:00 01908', '09:00 until 17:30 01908']"
osadoorparts.co.uk,[''],[''],[''],['01928'],['580 fax'],['703'],"['3EZ Phone: 01928 703 580 Fax: 01928', '04267836']"
meguiars.co.uk,[],[],[],[],[],[],['8HT. Registered No: 04176862']
auduskitchens.co.uk,[''],[''],[''],['01276'],['0118'],['973 2929windlesham'],['670 197Wokingham: 0118 973 2929Windlesham: 01276']
sandbbuilders.co.uk,[''],[''],[''],[''],['597825'],['07881'],['07881 597825']
xclusivedecor.com,[''],[''],[''],[''],['0'],['161408'],"['2 SIDE TABLESREF: 201801', '713 AljubarrotaPortugalVAT Number: PT514983078', '2AB United KingdomVAT Number: GB105139547', '44 (0) 161408']"
w-co.co.uk,[],[],[],[],[],[],['4063394']
londonshootfighters.com,[''],[''],[''],[''],['call'],['02037309557'],['50 Classes per week DROP US A CALL 02037309557']
gews.co.uk,[''],[''],[''],[''],['771159 | 0800'],['3282801'],"['01766 771159 | 0800 3282801', '4364145 | V.A.T. No: 793738573']"
standardgroup.co.uk,"['', '', '', '']","['', '', '', '']","['', '', '', '']","['', '01536', '', '01536']","['machinery sales', 'accounts', 'machinery sales', 'accounts']","['01536', '486 103', '01536', '486 107']","['01536 517 070 Machinery Sales: 01536', '486 103 Accounts: 01536', '8TD 01536 517 070 Machinery Sales: 01536', '486 103 Spare Parts: 01536', '486 101 Machinery Service: 01536', '486 107 Accounts: 01536']"
london-ghost-tour.com,[],[],[],[],[],[],['442085308443']
telelease.com,"['', '']","['', '']","['', '']","['', '']","['580151', '580151']","['03300', '03300']","['03300 580151', '03300 580151', '8NN Company Number: 05004236']"
mobilepie.com,[],[],[],[],[],[],['2023 by Mobile Pie.Tel: +441179294138']
cgoecology.com,[''],[''],[''],[''],['798126'],['01202'],"['5QD, UK 01202 798126', '06532052']"
corporateentertainmentco.co.uk,"['', '', '', '']","['', '', '', '']","['', '', '', '']","['', '', '', '']","['760065', '760065', '760227', '760227']","['01825', '01825', '01825', '01825']","['01825 760065', '01825 760065', '1HB Tel: 01825 760065 Fax: 01825 760227', '3141365', '1HB Tel: 01825 760065 Fax: 01825 760227', '3141365']"
millwoodeducation.co.uk,[],[],[],[],[],[],"['250 01484868297', '01484868297']"
mjabbott.co.uk,[''],[''],[''],[''],['716361'],['01722'],"['5EB, UK Telephone: 01722 716361']"
digipress.co.uk,[],[],[],[],[],[],"['01792 456661', '0AG 01792 456661']"
enderlegard.com,[''],[''],['207 2524666'],[''],[''],['44'],"['0.0% is D22530', '44 207 2524666']"
whitecliffsvets.co.uk,[''],[''],[''],[''],['out of hours01304'],['414141 emergency01304'],"['414141 Out of hours01304 414141 Emergency01304', '07746795']"
woodlandadventurers.org,[],[],[],[],[],[],['08298466']
platipus-anchors.com,[''],[''],[''],[''],['1737'],['762300'],['40 YearsTel: +44 (0) 1737 762300']
metricell.com,[],[],[],[],[],[],['1403 251494Company Registration Number: 6052274']
pdq1.com,[''],[''],[''],[''],['730043'],['01753'],"['01753 730043', '16-23 £59.99 1 In Stock 302-90-10031', '0LX Tel: 01753 730043']"
stone-zone.uk,[],[],[],[],[],[],['2024 | Registration No: 4483982']
soulbrother.com,[''],[''],[''],['15233'],['soul'],['20'],['2020 (242) Pre Order (20) Soul (15233']
partydoctors.co.uk,"['', '']","['', '']","['', '']","['', '']","['866666', '866666']","['01732', '01732']","['01732 866666', '01732 866666']"
martinsfarmmarket.net,[''],[''],[''],[''],['15161718192021'],['22232425262728'],"['2024 4월 월 화 수 목 금 토 일 1234567 891011121314', '15161718192021 22232425262728']"
greentimber.com,[''],['va'],['chesapeake'],['23328'],[''],[''],"['0LX, UK Tel: +44 01279 725200', '15671, Chesapeake, VA 23328']"
pinehills.com,"['', '']","['ma', 'ma']","['plymouth', 'plymouth']","['02360', '02360']","['summerhouse drive •', 'summerhouse drive']","['33', '33']","['33 Summerhouse Drive • Plymouth, MA 02360', '33 Summerhouse Drive Plymouth, MA 02360']"
armchairmarketing.co.uk,"['', '', '']","['', '', '']","['', '', '']","['', '', '']","['879657', '879657', '879657']","['01604', '01604', '01604']","['01604 879657', '01604 879657', '01604 879657', '239577659 Company number: 10079278']"
allawayacoustics.co.uk,[''],[''],['tel'],['01992'],['queens road'],['1'],['1 Queens Road Hertford SG14 1EN Tel: 01992']
urbanescape.co.uk,"['', '', '']","['', '', '']","['', '', '']","['', '', '']","['424244', '424244', '424244']","['01484', '01484', '01484']","['01484 424244', '01484 424244', '1LNUnited KingdomCall: 01484 424244']"
royalacademyofculinaryarts.org.uk,['gb'],[''],['vat'],['503338869'],[''],[''],['09242241 Vat No: GB 503338869']
ukindustrialflooring.co.uk,[''],[''],[''],[''],['790186'],['01978'],"['01978 790186', '2SPPhone: 01978']"
wardblawg.com,[],[],[],[],[],[],"['0 + blog posts published 10000', '0 + blog posts published 10000']"
deborahedwardsdesign.co.uk,"['', '']","['', '']","['', '']","['07968', '']","['2030', '2030']","['9664', '9664 // 07968']","['029 2030 9664 07968', '029 2030 9664 // 07968']"
zavvi.es,"['', '']","['', '']","['', '']","['42146', '42146']","['set', 'set']","['13000', '13000']","['911 Collectable Model (10295', '911 Collectable Model (10295', '2-2023 (21060', '2-2023 (21060', '13000 Set 42146', '13000 Set 42146']"
icamarchive.co.uk,[''],[''],[''],[''],['1538'],['373526'],['44 (0)1538 373526']
destinationbasingstoke.co.uk,"['', '', '', '', '', '']","['', '', '', '', '', '']","['', '', '', '', '', '']","['1777727943227130015', '1777727307198697941', '1777726703168540896', '1777709112404385942', '1777707677499494756', '1775184419973640502']","['twitter', 'twitter', 'twitter', 'twitter', 'twitter', 'twitter']","['2', '1', '0', '4', '3', '1']","['9 Apr 1777727943227130015', '1777727943227130015', '1777727943227130015', '0 Like on Twitter 1777727943227130015', '2 Twitter 1777727943227130015', '9 Apr 1777727307198697941', '1777727307198697941', '1777727307198697941', '0 Like on Twitter 1777727307198697941', '1 Twitter 1777727307198697941', '9 Apr 1777726703168540896', '1777726703168540896', '1777726703168540896', '0 Like on Twitter 1777726703168540896', '0 Twitter 1777726703168540896', '9 Apr 1777709112404385942', '1777709112404385942', '1777709112404385942', '0 Like on Twitter 1777709112404385942', '4 Twitter 1777709112404385942', '9 Apr 1777707677499494756', '1777707677499494756', '1777707677499494756', '0 Like on Twitter 1777707677499494756', '3 Twitter 1777707677499494756', '2 Apr 1775184419973640502', '1775184419973640502', '1775184419973640502', '0 Like on Twitter 1775184419973640502', '1 Twitter 1775184419973640502', '04789569']"
butlerrose.com,"['', '']","['', '']","['', '']","['45000', '28000']","['£', '£']","['24000', '22000']","['24000 - £45000', '22000 - £28000', '44000.00 - £55000', '08968041']"
swaleviewpark.co.uk,"['', '']","['', '']","['', '']","['', '']","['823106', '823106']","['01748', '01748']","['01748 823106', '01748 823106']"
thompsonbrothers.net,[],[],[],[],[],[],['09850559']
arabartsfestival.com,[],[],[],[],[],[],['07184925 Charity Number: 1136384']
psychosynthesis.org,[],[],[],[],[],[],['01489186']
qxlva.com,[''],[''],[''],[''],['1249'],['751000'],['44 (0)1249 751000']
holdsworthchocolates.co.uk,[],[],[],[],[],[],['1GT01629']
trentvineyard.org,[],[],[],[],[],[],['3018774 Charity No. 1044369 VAT No. 244309911']
adboards.com,[],[],[],[],[],[],['2TE Phone 01204']
dentalmarketingexpert.co.uk,"['', '']","['', '']","['', '']","['', '']","['626398', 'no 123470541']","['01767', 'no 07739295vat']","['01767 626398', '1LRCompany No: 07739295VAT No: 123470541']"
codelife.org,[''],[''],[''],[''],['452483'],['01246'],['3XD T: (01246) 452483']
theheavenlycakecompany.co.uk,[''],[''],['london'],['se8 4jh 36163'],['brookmill road'],['139'],"['07459661594', '07459661594', '06497049', '139 Brookmill Road, London SE8 4JH 36163']"
blubambu.co.uk,[],[],[],[],[],[],['42df-8238-3620c01fa21b-1712974373']
srgtalent.com,[''],[''],[''],[''],['â£40000'],['35000'],['35000 - Â£40000']
edwardbulmerpaint.co.uk,[],[],[],[],[],[],['11061886']
bigfinish.com,[],[],[],[],[],[],['9UL Sales/Mail Order Telephone +44 1628 824102']
dmb.uk.com,[''],[''],[''],[''],['1707887 8027'],['26'],"['6420823 | VAT no: 928 5060 1707887 802726', '6420823']"
flysoftware.com,[],[],[],[],[],[],['06526124']
animalstory.co.uk,[],[],[],[],[],[],['07736846575']
imajica.com,[],[],[],[],[],[],['0DS Contact +44 (0)1224 443595']
ers.com,[],[],[],[],[],[],['00426475']
entrustit.co.uk,[''],['ma'],['boston'],['02108'],[''],['2600'],"['2600, Boston, MA 02108']"
redbluemechanical.co.uk,[''],[''],[''],[''],['203085'],['01344'],['01344 203085']
pyemotors.co.uk,"['', '', '', '', '', '', '']","['', '', '', '', '', '', '']","['', '', '', '', '', '', '']","['01229', '', '', '', '01524', '', '']","['parts', '816800', '816800', '598598', '598641 parts', '847962', 'reg. no. 153686543']","['842323', '01539', '01539', '01524 598598 service 01524', '01524', '01524', '']","['01229 842323 Service: 01229 842323 Parts: 01229', '842323 Call Pye Motors Kendal Sales: 01539 816800', '01539 816800 Parts: 01539 816800', '01524 598598 Service: 01524 598598', '01524 598659 Hire: 01524 598641 Parts: 01524', '01524 847962', '204727VAT Reg. No. 153686543']"
conisboroughcollege.co.uk,[''],[''],[''],[''],['charity'],['no. 1016538'],"['00018582. Charity No. 313999', '2780748. Charity No. 1016538', '4439859']"
dpdlocal.co.uk,[],[],[],[],[],[],['01421773']
marlboroughhousetherapycentre.co.uk,"['', '']","['', '']","['', 'taunton']","['01823', '272227']","['272', 'middle street']","['227', '1']","['01823 272 227 Appointments - 01823', '1 Middle Street, Taunton TA1 1SH 01823 272227', '097765711']"
inoutsolutions.co.uk,[''],[''],['leeds'],['ls12 6ez 07525644066'],['whitehall road'],['199'],"['07525644066', '199 Whitehall Road, Leeds, LS12 6EZ 07525644066']"
pandr.online,"['', '', '']","['', '', '']","['', '', '']","['', '', '']","['822444', '822444', '822444']","['01302', '01302', '01302']","['10am - 6pm Saturday 10am - 4pm 01302 822444', '0) (0) 01302 822444', '10am - 6pm Saturday 10am - 4pm 01302 822444']"
pier64.co.uk,[],[],[],[],[],[],"['30 มีนาคม 202430', '29 มกราคม 20234', '15 มกราคม 20234', '13 พฤศจิกายน 20227', '12 ตุลาคม 202212']"
brickweb.co.uk,[],[],[],[],[],[],['04599343']
lincolnhotel.co.uk,"['', '']","['', '']","['', '']","['', '']","['395558', '395558']","['02920', '02920']","['02920 395558', '02920 395558']"
whiltonmill.co.uk,"['', '']","['', '']","['', '']","['', '']","['843822', '843822']","['01327', '01327']","['01327 843822', '01327 843822']"
thermometersdirect.co.uk,[],[],[],[],[],[],['01252 341000']
affinitywater.co.uk,[],[],[],[],[],[],['02546950']
architecturalplants.com,[''],[''],[''],[''],['879213'],['01798'],['01798 879213']
pelicanprocurement.co.uk,[],[],[],[],[],[],"['01252 705200', '2367432']"
thevoipshop.co.uk,"['', '', '', '', '', '', '', '', '', '', '']","['', '', '', '', '', '', '', '', '', '', '']","['', '', '', '', '', '', '', '', '', '', '']","['01224', '01225', '01273', '01223', '01228', '01865', '01452', '01908', '01392', '01522', '01473']","['glasgow area code', 'nottingham area code', 'belfast area code', 'bristol area code', 'canterbury area code', 'reading area code', 'thetford area code', 'norwich area code', 'sheffield area code', 'middlesbrough area code', 'southampton area code']","['0141', '0115', '028', '0117', '01227', '0118', '01842', '01603', '0114', '01642', '023']","['01162438426', '0141 Glasgow area code 01224', '0115 Nottingham area code 01225', '028 Belfast area code 01273', '0117 Bristol area code 01223', '01227 Canterbury area code 01228', '0118 Reading area code 01865', '01842 Thetford area code 01452', '01603 Norwich area code 01908', '0114 Sheffield area code 01392', '01642 Middlesbrough area code 01522', '023 Southampton area code 01473', '0116 2438426', '02038877388']"
flowtech.org.uk,[],[],[],[],[],[],['05125479']
consysequip.com,"['', '', '']","['', '', '']","['', '', '']","['', '', '01628']","['529448', '529448', 'email protected tel']","['01628', '01628', '']","['01628 529448', '01628 529448', '0PE; Email : [email protected];Tel : 01628', '7507713']"
appliancerepairmanchester.co.uk,[],[],[],[],[],[],"['2024 Came out within two hours of call 305769', '07531907']"
classicbikepartscheshire.com,[],[],[],[],[],[],"['01270 520139', '01270 520139', '7PXCompany Registration Number 5955811', '924621925']"
eggarforresterinsurance.com,[],[],[],[],[],[],"['5DE. Registered in England, No. 4908667']"
barts-choir.com,[],[],[],[],[],[],['1197538']
oakover.co.uk,[''],[''],[''],[''],['620125'],['01934'],['1DA 01934 620125']
albany-pumps.co.uk,[''],[''],[''],[''],['1594'],['842275'],['44 (0) 1594 842275']
zendrillscaffolding.co.uk,"['', '']","['', '']","['', '']","['', '']","['268880', '548471']","['01634', '07876']","['01634 268880', '01634 268880 please contact Lewis on Mob 07769', '221449 please contact Ben on Mob 07876 548471']"
alto-marketing.com,[],[],[],[],[],[],"['2024 Alto Marketing, Company No. 04403848']"
noisegatemedia.com,"['', '']","['', '']","['', '']","['', '']","['330135', '330135']","['01926', '01926']","['01926 330135', '6TH T: 01926 330135']"
snsg.co.uk,"['', '', '', '', '', '']","['', '', '', '', '', '']","['', '', '', '', '', '']","['492022', '512022', '432022', '092023', '072023', '052023']","['15', '15', '15', '16', '16', '16']","['52', '50', '48', '16', '10', '00']","['10-24 15:52:492022', '10-24 15:50:512022', '10-24 15:48:432022', '07-13 16:16:092023', '07-13 16:10:072023', '07-13 16:00:052023', '4875070']"
fisu.org,[],[],[],[],[],[],['1061185']
chestnutcaregloucester.co.uk,[''],[''],[''],[''],['424228'],['07807'],['07807 424228']
emmamcneil.co.uk,"['', '']","['', '']","['', '']","['', '']","['7985', '7985']","['490246', '490246']","['44 (0) 7985 490246', '44 (0) 7985 490246']"
grand-union.org.uk,[],[],[],[],[],[],['1184473']
balconyshirts.co.uk,"['', '', '']","['', '', '']","['', '', '']","['', '', '']","['239111', '239111', '239111']","['01895', '01895', '01895']","['01895 239111', '9am and 5pm. 01895 239111', '01895 239111']"
pfponline.com,[],[],[],[],[],[],['4070987']
pmkcivilengineering.com,[''],[''],[''],['18001'],['iso 14001 and ohsas'],['9001'],"['9001, ISO 14001 and OHSAS 18001']"
mailsure-it.com,[''],[''],[''],[''],"['1,0001']",['12'],"['1,00021', '1,0001 - 12 months$0 (0%)$1,00013', '24 months$100 (10%)$1,00025', '36 months$200 (20%)$1,00037', '1,00021']"
rndcore.com,[],[],[],[],[],[],['7663306']
wrssolutions.com,"['', '']","['', '']","['', '']","['', '']","['640042', '588773']","['01709', '01709']","['01709 640042', '01709 588773']"
praestoconsulting.com,[],[],[],[],[],[],"['10919925', '06367081']"
class.agency,[],[],[],[],[],[],['06783153']
bakers-solicitors.com,[''],[''],[''],[''],['767495'],['01298'],['0161 804 04 70 (Manchester) 01298 767495']
ihc-uk.com,"['', '']","['', '']","['', '']","['', '']","['449000', '440099']","['01323', '01323']","['01323 449000', '3JU Contact Us T 01323 449000 F 01323 440099']"
oakleyproperty.com,"['', '', '', '', '', '']","['', '', '', '', '', '']","['t', 't', 't', 'brighton', '', 'lewes']","['01273', '01273', '01273', '01273', '01273', '01273']","['foundry street', 'foundry street', 'foundry street', 't', '5wb t', 't']","['30-31', '30-31', '30-31', '3-6', '', '14a']","['18,400 sq ftContact James Hamblyn: 01273', '30‑31 Foundry Street Brighton, BN1 4AT T 01273', '30‑31 Foundry Street Brighton, BN1 4AT T 01273', '30‑31 Foundry Street Brighton, BN1 4AT T 01273', '3-6 North Road Brighton, BN1 1YA T 01273', '5WB T 01273', '14a High Street Lewes, BN7 2LN T 01273']"
nicheworks.co.uk,[''],[''],[''],[''],['605674'],['07900'],['07900 605674']
spettro.net,[],[],[],[],[],[],['0800 1522640']
rfs.org.uk,[],[],[],[],[],[],['5306975']
sk-design.co.uk,[],[],[],[],[],[],['01924 835600 M: 07767 774257']
longhornbeef.co.uk,[''],[''],[''],[''],['351939 office or 01743'],['362979'],['01743 351939 (office) or 01743 362979']
kabi.co.uk,[''],[''],[''],[''],['488124'],['01582'],"['8EF - Phone 01582 483698 - Fax 01582 488124', '03044080']"
shutterworld.co.uk,[],[],[],[],[],[],['08707545300']
buildersinbristol.net,"['', '']","['', '']","['', '']","['07966', '']","['mobile', '202180']","['117', '07966']","['01454 317 117 Mobile: 07966', '07966 202180']"
pacheshamgolf.co.uk,"['', '']","['', '']","['', '']","['', '']","['843453', '843453']","['01372', '01372']","['01372 843453', '0BP Telephone: 01372 843453']"
pe-systems.co.uk,[''],[''],[''],[''],['260330'],['01942'],"['01942 260330', '02117413', '01942 670100']"
weddingmakeupandhair.com,[],[],[],[],[],[],['07720 300062']
mse-uk.com,[''],[''],[''],[''],['582730'],['01527'],"['01527 582730', '6AN.01527 582730']"
surreysoftplayhire.com,"['', '']","['', '']","['', '']","['', '']","['745532', 'call now07592']","['07592', '745532']","['07592 745532', '15.00 Per Day Call Now07592 745532']"
iccopr.com,"['', '', '', '', '', '']","['', '', '', '', '', '']","['', '', '', '', '', '']","['1777999969586229305', '1777999969586229305', '1777675931831661004', '1777337207495205123', '1776312477027909740', '1775961537108209903']","['10 apr', 'twitter', 'twitter', 'twitter', 'twitter', 'twitter']","['', '4', '1', '3', '1', '89']","['10 Apr 1777999969586229305', '1777999969586229305', '1777999969586229305', '1 Like on Twitter 1777999969586229305', '4 Twitter 1777999969586229305', '9 Apr 1777675931831661004', '2024/ Reply on Twitter 1777675931831661004', '1777675931831661004', '1 Like on Twitter 1777675931831661004', '1 Twitter 1777675931831661004', '8 Apr 1777337207495205123', '1777337207495205123', '1777337207495205123', '2 Like on Twitter 1777337207495205123', '3 Twitter 1777337207495205123', '5 Apr 1776312477027909740', '1776312477027909740', '1776312477027909740', '0 Like on Twitter 1776312477027909740', '1 Twitter 1776312477027909740', '4 Apr 1775961537108209903', '1775961537108209903', '1775961537108209903', '53 Like on Twitter 1775961537108209903', '89 Twitter 1775961537108209903']"
firstrecruitmentgroup.com,"['', '', '', '', '', '', '']","['', '', '', '', '', '', '']","['', '', '', '', '', '', 'singapore']","['', '', '', '', '', '', '049319']","['1925', 'fax +44 (0)1925 907001', '1925', 'tel +233 (0)303933264', '0', '0', 'collyer quay #23-01']","['907000', '000', '907000', '0854', '302770492', '721548542', '20']","['44 (0)1925 907000', '7QU 01925 907 000 Fax: +44 (0)1925 907001', '44 (0)1925 907000', '0854 Tel: +233 (0)303933264', '233 (0)302770492', '254 (0)721548542', '20 Collyer Quay, #23-01 Singapore 049319']"
thehungerproject.org.uk,[],[],[],[],[],[],"['1164839', '9583057']"
doglawsos.co.uk,[],[],[],[],[],[],['2HQ. Company Registration Number 06983617']
clogau.co.uk,[],[],[],[],[],[],"['4371-B930-329E55A30A92 American Express 84E94519', '2889CBED-AA56-46CB-B42F-BEE79D906855', '2146156', '4443144341']"
ivfbioscience.com,[],[],[],[],[],[],['07121405']
shiresequestrian.com,[''],[''],[''],[''],['613600'],['01568'],['01568 613600']
hoteliona.co.uk,"['', '']","['', '']","['', '']","['', '']","['294918', '294918']","['01803', '01803']","['5BDTel: 01803 294918', '01803 294918']"
deversoftware.com,"['', '', '', '']","['', '', '', '']","['', '', '', '']","['', '', '', '']","['1962', '1962', '1962', '1962']","['774237', '774237', '774237', '774237']","['44 (0) 1962 774237', '44 (0) 1962 774237', '44 (0) 1962 774237', '44 (0) 1962 774237']"
citycollegeoxford.co.uk,"['united kingdom +44 1865 792444', '', '', '']","['', '', '', '']","['1ez', '', '', '']","['', '', '', '']","['', '00447599909996', '971 6724242', '971 5671823']","['', '00447599909996', '5', '93']","['441865792444', '1EZ, United Kingdom +44 1865 792444', '00447599909996 00447599909996', '00 971 67242425 00 971 67242425', '00 971 567182393', '441865792444']"
dizzysquirrel.com,[],[],[],[],[],[],['08289439']
tri-sphere.co.uk,[''],[''],[''],[''],['1785'],['282864'],['44 (0) 1785 282864']
laplacesolutions.com,"['', '']","['', '']","['', '']","['', '']","['255,255,0.01 #striped-custom-6619ea6226679', '255,255,0.01 #striped-custom-6619ea6228213']","['', '']","['6619ea6226679', '6619ea6226679', '255,255,0.01) } #striped-custom-6619ea6226679', '6619ea6228213', '6619ea6228213', '255,255,0.01) } #striped-custom-6619ea6228213', '1811584']"
desynit.com,[],[],[],[],[],[],['0DD Registered in England & Wales no. 06200416']
navitassafety.com,[],[],[],[],[],[],['08861678']
lakesanddales.coop,[],[],[],[],[],[],['27872572']
diskingcomputers.com,"['', '', '', '']","['', '', '', '']","['', '', '', '']","['', '', '', '770077']","['978004', '774848', '774877', '7eusales@disking.co.uktel']","['01252', '01730', '01730', '01428']","['01243 978888 Disking Farnham 01252 978004', '01428 770077 Disking Midhurst 01730 774848', '01428 770061 Disking Petersfield 01730 774877', '7EUsales@disking.co.ukTel: 01428 770077']"
pfsc.co.uk,"['', '']","['', '']","['', '']","['', '']","['account', 'account']","['80-11-00', '80-11-00']","['80-11-00 Account number: 00398105', '80-11-00 Account number: 00398105']"
wjec.co.uk,[''],[''],[''],[''],"['level legacy "" ""']",['214101'],"['0,""openInNewTab"":false,""qualCodes"":[""601396', '0,""openInNewTab"":false,""qualCodes"":[""964004', '221101 AS Cash In"",""321101', '0,""openInNewTab"":false,""qualCodes"":[""951001', '0,""openInNewTab"":false,""qualCodes"":[""950003', '314101 A Level (Legacy)"",""214101', '0,""openInNewTab"":false,""qualCodes"":[""964001', '0,""openInNewTab"":false,""qualCodes"":[""964002', '0,""openInNewTab"":false,""qualCodes"":[""964003', '0,""openInNewTab"":false,""qualCodes"":[""955001']"
blackheathproducts.co.uk,[''],[''],[''],[''],['registered in england'],['597879'],['2024 Registered in England 597879']
brunsdonfinancial.co.uk,[],[],[],[],[],[],['9am-5pm 01452']
gunrepair.co.uk,[''],[''],[''],[''],['854639'],['01923'],"['01923 854639', '7HP | 01923 854639']"
monarch-equestrian.co.uk,"['', '', '', '']","['', '', '', '']","['', '', '', '']","['', '', '', '']","['605566', '605566', '605566', '605566']","['01902', '01902', '01902', '01902']","['01902 605566', '01902 605566', '01902 605566', '1QT 01902 605566']"
lawnturfnottingham.com,"['', '']","['', '']","['', '']","['', '07974']","['636 752 0797', 'mobile']","['4', '752']","['01159 636 752 07974', '6UD Telephone: 01159 636 752 Mobile: 07974']"
ashford.gov.uk,[],[],[],[],[],[],['01233 331111']
paintball-worcester.co.uk,[],[],[],[],[],[],['8ERUK registered company Nr: 11456553']
mirabellabeautysalon.co.uk,"['', '']","['', '']","['', '']","['', '']","['348488', '348488']","['01245', '01245']","['01245 348488', '0LDMirabella Beauty Salon 01245 348488']"
aclautomotive.co.uk,[],[],[],[],[],[],['06296885']
worthing-coaches.co.uk,[],[],[],[],[],[],"['8UA Tel No: 01903 505805', '1313045']"
clarity4d.com,"['', '']","['', '']","['', '']","['', '']","['1780', '1780']","['767873', '767873']","['44 (0)1780 767873', '44 (0)1780 767873']"
howe-engineering.co.uk,[''],[''],[''],['01763'],['7-seater people-carriers.'],[''],"['7-seater people-carriers. 01763', '0DY | Tel: 01763 289521']"
jkwlaw.com,"['', '']","['', '']","['mobile', '']","['07870', '']","['693', '7870']","['3827++ 44', '676582']","['0203 693 3827++ 44 203 693 3827 Mobile:07870', '676582++ 44 7870 676582']"
irishmethodist.org,[''],[''],[''],[''],['ni no. 20000578'],['108435'],['108435 (NI) No. 20000578']
fernwoodcommercials.co.uk,[''],[''],[''],['07717'],['john'],['07919 557555'],['01708 868741 Stuart: 07919 557555 John: 07717']
blakeleysofbrighouse.co.uk,[''],[''],['brighouse'],['01484'],['t'],['1'],['1 Canal Street Brighouse HD6 1JX T 01484']
rosalindwhitephotography.com,[''],[''],[''],[''],['982389'],['07900'],['07900 982389']
veritekglobal.com,"['', '', '']","['', '', '']","['', '', '']","['500200', '500200', '500200']","['0', '0', '0']","['1323', '1323', '1323']","['44 (0)1323 500200', '44 (0)1323 500200', '44 (0)1323 500200']"
signseen.co.uk,[''],[''],['guildford'],['01483'],[''],[''],"['7WAOffice Guildford, (01483']"
allianceleisure.co.uk,[],[],[],[],[],[],['4AQ Tel: 01454 877558']
optionschelmsford.com,[''],[''],[''],[''],['491434'],['01245'],['1SY 01245 491434']
llanhillethinstitute.com,[],[],[],[],[],[],"['01495 400204', '2024 Charity Registration Number: 1128924', '6056945']"
horsematshop.co.uk,"['', '']","['', '']","['', '']","['', '']","['886929 +44(0)1787 886929', '1787']","['01787', '886929']","['01787 886929 +44(0)1787 886929', '44(0)1787 886929']"
kingfishershopping.co.uk,[],[],[],[],[],[],['4HJ 01527405800']
polarisagency.com,[],[],[],[],[],[],['09361252']
foamtechniques.co.uk,[],[],[],[],[],[],['02078810']
pupilrewardpoints.co.uk,[''],[''],[''],[''],['vat no. 123690523'],['07659874'],['07659874. VAT No. 123690523']
etc-inter.net,[],[],[],[],[],[],['2534867']
thesummitclinic.co.uk,"['', '', '', '']","['', 'or', '', '']","['', '', 'ico', '']","['07775', '07775', '', '07775']","['993', '993 6115', 'reg no. z230043', '993']","['6115mobile', '0207', '06725933', '6115mobile']","['0207 993 6115Mobile: 07775', '0207 993 6115 or 07775', '06725933. ICO Reg No. Z230043', '0207 993 6115Mobile: 07775']"
lktelectricalservices.com,[''],[''],[''],[''],['reg. no. 06224476'],[''],['927730117 | Company Reg. No. 06224476']
brunelcare.org.uk,[],[],[],[],[],[],"['08:30 – 16:30 Registered charity no: 201555', '579008632']"
pyedesign.com,"['', '']","['', '']","['', '']","['', '07789']","['691917', '218']","['07789', '3817m']","['0121 218 3817 M: 07789 691917', '0121 218 3817M: 07789']"
williamloughran.co.uk,"['', '']","['', '']","['', '']","['', '']","['613114', 'all rights reserved. +44 (0)1772 613114']","['01772', '2019']","['01772 613114', '2019. All rights reserved. +44 (0)1772 613114']"
workbooks.com,[],[],[],[],[],[],['6393851']
coxhire.co.uk,[''],[''],[''],[''],['399500'],['01384'],"['01384 399500', '2024 Registered in England and Wales: 461924']"
poppycottages.co.uk,"['', '']","['', '']","['', '']","['', '']","['640885', '640885']","['07841', '07841']","['01756 792874 07841 640885', '3BY 01756 792874 07841 640885']"
depaulfrance.org,[''],[''],[''],['75015'],['rue des périchaux'],['41'],['2024 DEPAUL FRANCE 41 rue des Périchaux 75015']
albaamicorum.com,[],[],[],[],[],[],"['1134/4806/files/megamenu-manray.jpg?v=1672770770', '1134/4806/files/megamenu-photo.jpg?v=1672770770', '1134/4806/files/intonations-mega.jpg?v=1672771299', '1/1134/4806/files/mega-movies.jpg?v=1672770770', '1.webp?v=1709924051', '1/1134/4806/files/mega-movies.jpg?v=1672770770', '4806/files/mega-image-gallery.jpg?v=1672770770', '1134/4806/files/mega-lookbooks.jpg?v=1672770770', '06996948']"
sonaspection.com,[],[],[],[],[],[],['44 1524 34991']
nationalplastics.co.uk,[],[],[],[],[],[],['1268689']
jennieden.com,"['', '']","['', '']","['', '']","['', '']","['632995', '632995']","['01423', '01423']","['01423 632995', '0LZ Contact \uf095 01423 632995 \uf095 01423 632995']"
garringtoneast.co.uk,"['', '']","['', '']","['', '']","['', '']","['1223', '1223']","['858310', '858310']","['44 (0) 1223 858310', '44 (0) 1223 858310']"
poweredbypie.co.uk,[],[],[],[],[],[],"['6029390', '0TD. VAT registration number 897481753']"
hyalofemme.co.uk,[],[],[],[],[],[],['09924529']
quickits.co.uk,[''],[''],[''],['14001'],['2015 & iso'],['9001'],['9001:2015 & ISO 14001']
bettymiller.com,[],[],[],[],[],[],['0JECompany No. 10474774']
yorkshireholidaycottages.co.uk,[''],[''],[''],[''],['reg'],['143053210'],['4DF Company No. 02431506 | VAT reg: 143053210']
schoolfurniture.co.uk,"['', '', '']","['', '', '']","['', '', '']","['', '18001', '']","['894833', 'bs ohsas', '894833']","['01223', '14401', '01223']","['01223 894833', '9001 ISO 14401 BS OHSAS 18001', '01223 894833']"
nctilesandbathrooms.com,[],[],[],[],[],[],"['00000140', '14290857']"
victoriafalls-zambiatravel-safaris.com,[''],['pa'],['allentown'],['18106'],['hamilton blvd'],['6081'],"['6081 Hamilton Blvd, Suite 600 Allentown, PA 18106']"
royaloakkeswick.co.uk,"['', '']","['', '']","['september', '']","['20210', '']","['4514', '773135']","['5014', '01768']","['9 September 202114', '3014:3514:4014:4514:5014:55Today9 September 20210', '5HZ 01768 773135']"
southamptoncruisecentre.com,[],[],[],[],[],[],"['3JU Reservations: 02380', '658 386 Care Team: 02380']"
baks.co.uk,[],[],[],[],[],[],"['01202 751008', '01202 751008', '9AS01202', '12038692']"
webuyyourscrapcars.com,[''],[''],[''],[''],['558110'],['07870'],"['1CALL US FOR A QUOTE ON YOUR VEHICLE ON 07870', '07870558110', '07870 558110']"
sixteenfeet.co.uk,[],[],[],[],[],[],['07674820']
marlinservices.co.uk,"['', '']","['', '']","['', '']","['', '']","['238444', '238444']","['01895', '01895']","['01895 238444', '01895 238444']"
innovation-productions.com,[''],[''],[''],['01484'],['1ju'],[''],['1JU 01484']
afsuk.com,[],[],[],[],[],[],"['5QB Tel: 01254 958777', '5RZ Tel: 01904 481786']"
pollock.co.uk,[''],[''],['bathgate'],['eh48 2ey01506'],['blackburn road'],['10'],"['10 Blackburn Road, Bathgate, EH48 2EY01506', '01506 657000']"
vectormanagement.co.uk,[],[],[],[],[],[],"['0800 4045005', '5AY TEL: 0800 4045005']"
ciob.org,[''],['scotland'],[''],['sc041725'],[''],[''],"['1WA, UK | tel: +44 (0) 1344 630700', '280795 (Scotland) SC041725']"
drawrecruitment.com,[],[],[],[],[],[],['10153410']
scpersonaltraining.com,"['', '']","['', '']","['', '']","['', '']","['233525', '233525']","['07969', '07969']","['07969 233525', '07969 233525']"
redcircledigital.co.uk,[],[],[],[],[],[],['08356715']
fleetevolution.com,"['', '']","['', '']","['', '']","['', '']","['vat', '434747']","['1665', '01494']","['4 plasma TVs in your home, running 24/7. 21000', '07401665', '1665. VAT number 998646632', '01494 434747']"
oliverharvey.co.uk,[],[],[],[],[],[],['1712974391']
cookeryacademy.co.uk,[],[],[],[],[],[],['8EX Tel: +441983 209005']
reform-gym.co.uk,[],[],[],[],[],[],['11846654']
lenzieunion.org,[],[],[],[],[],[],['07856260262']
sinclairvans.co.uk,"['', '']","['', '']","['', '']","['', '']","['492100', '448118']","['02920', '01792']","['4BB 02920 492100', '9GW 01792 448118', '5LJ Registered number: 1192572']"
cerberusnetworks.co.uk,[''],[''],[''],[''],['eori'],['no. gb879286456000'],"['05734067', '879 2864 56 EORI No. GB879286456000']"
northgatevehiclehire.co.uk,[],[],[],[],[],[],['4PZCompany Registration: 01434157']
woollybabs.com,[],[],[],[],[],[],['0113 2506943']
drewbuckleyphotography.com,[],[],[],[],[],[],['07725518445']
dukesbrewandque.com,[''],[''],[''],[''],['5aa t'],['02030060795'],['5AA T: 02030060795']
zumajay.co.uk,[''],[''],[''],[''],['354956'],['01288'],['01288 354956']
durhambox.co.uk,"['', '']","['', '']","['', '']","['', '']","['604024', '604024']","['01388', '01388']","['01388 604024', '9AD | T: 01388 604024']"
whiteblancmange.com,[''],[''],[''],[''],['2032'],['392244'],"['44 2032 392244', '7089911']"
trederwensprings.co.uk,[''],[''],[''],['829106'],['0'],['1691'],"['44(0)1691 829106', '01691 829106', '06452544']"
bluemonkeyweb.com,[],[],[],[],[],[],['14645210']
caremeds.co.uk,[],[],[],[],[],[],['07990372']
priorandwillisantiques.co.uk,[],[],[],[],[],[],['7EJ mark@priorandwillis.co.uk +44 7866 705199']
swiftroofing.co.uk,[''],[''],[''],[''],['632420'],['01622'],"['01622 632420', '11592058']"
supremesunbeds.co.uk,[],[],[],[],[],[],['01204 844111']
clarendonhotel.com,[''],[''],[''],['01234'],['children'],['12345'],['12345 Children 01234']
sjacymru.org.uk,[],[],[],[],[],[],['250523. Company number 05071073']
exquisite-salon.co.uk,[''],[''],[''],[''],['731173'],['01263'],['01263 731173']
redkitebaby.co.uk,[''],[''],['tel'],['01454'],[''],[''],['5QX \u200b Tel : 01454']
tonydagostino.co.uk,[],[],[],[],[],[],['15418530']
inoapps.com,[],[],[],[],[],[],"['4ZT Company Number: SC280651', '875416988', '4ZT Company Number: SC280651', '875416988']"
schooladvice.co.uk,[],[],[],[],[],[],['03475198']
modu-europe.com,[''],[''],[''],[''],['1252'],['369818'],['44 (0)1252 369818']
twinpet.com,[''],[''],[''],[''],['hannah street porth'],['01443686533'],"['12 / 13 Hannah Street, Porth 01443686533']"
mobileppl.uk,[],[],[],[],[],[],"['005188-000 | ISO 14001', '02347762']"
duckbarn.co.uk,[],[],[],[],[],[],['08672013 | VAT Reg No: GB 263607600']
ct-engineering.co.uk,"['', '', '']","['', '', '']","['', '', '']","['', '', '']","['419296', '419296', '419296']","['01934', '01934', '01934']","['01934 419296', '01934 419296', '9AX 01934 419296']"
bossdriving.co.uk,"['', '', 'united kingdom']","['', '', '']","['', '', '']","['', '', '01708']","['521339 07956', '283682', '521339 07956']","['283682', '07956', '283682']","['01708 521339 07956 283682', '07956 283682', '9RJ UNITED KINGDOM 01708 521339 07956 283682']"
browntroutinn.com,"['', '']","['', '']","['', '']","['', '']","['868209', '868209']","['02870', '02870']","['4ADTel: 02870', '02870 868209', '02870 868209']"
bedmaxshavings.com,[],[],[],[],[],[],['7PF.+44 1668 213467']
maritimedevelopments.com,[''],[''],[''],[''],['1224'],['252900'],['44 1224 252900']
basiccharity.org.uk,[],[],[],[],[],[],['01944414']
marubeni-komatsu.co.uk,[''],['england'],[''],['1040079'],[''],[''],['0RT REGISTERED IN ENGLAND: 1040079']
letterboxdistribution.com,[],[],[],[],[],[],['3046611']
jccars.co.uk,"['', '']","['', '']","['', '']","['', '']","['733863', '492517']","['01603', '07799']","['4QQ Tel: Office: (01603) 733863', '01603) 784111', '01603) 784111 - (07799) 492517']"
cablemonkey.co.uk,"['', '']","['', '']","['', '']","['60320', '60320']","['plug to iec', 'plug iec']","['', '1363']","['8 / 58854', '1)UK Mains (BS 1363) Plug to IEC 60320', '1363 Plug IEC 60320', '7AAlocal_phone01376']"
portogramltd.co.uk,[''],[''],[''],[''],['825000'],['01773'],['1944. Read more Contact us 01773 825000']
thewoolroom.com,[],[],[],[],[],[],['50% Proud to be OEKO-TEXÂ® certified 01780']
principio.co.uk,[],[],[],[],[],[],"['44-7415990386 (UK), +91-8879975189', '48-507155124', '44-7415990386', '44-7415990386', '91-8879975189', '48-507155124']"
thebelfieldgroup.com,[],[],[],[],[],[],['2024 | Registered in England No. 10061567']
edinburghbiketours.co.uk,[],[],[],[],[],[],['07754442434']
hivepharmacy.com,[],[],[],[],[],[],"['07828884035', '07077579 VAT Reg. Number: 987802859', '1035132']"
dai-lewis.co.uk,"['', '', '', '', '', '', '', '', '', '', '', '']","['', '', '', '', '', '', '', '', '', '', '', '']","['', '', '', '', '', '', '', '', '', '', '', '']","['', '', '', '', '', '', '', '', '', '', '', '']","['363401', '710481', 'ref l34014', 'ref l33049', 'ref l32079', 'ref l24015', 'ref n34031', 'ref l34011', 'ref l24015', 'ref l24010', '363401', '710481']","['01559', '01239', '179,950', '475,000', '495,000', '395,000', '135,000', '207,750', '325,000', '690,000', '01559', '01239']","['01559 363401', '01239 710481', '179,950 REF: L34014', '475,000 REF: L33049', '495,000 REF: L32079', '395,000 REF: L24015', '135,000 REF: N34031', '207,750 REF: L34011', '325,000 REF: L24015', '690,000 REF: L24010', '01559 363401', '4BD NEWCASTLE EMLYN: 01239 710481']"
intelligent-protection.co.uk,"['', '', '', '', '']","['', '', '', '', '']","['', '', '', '', '']","['10002', '531411', '', '', '00016']","['bs iso', '1', '34', '49', '083']","['2015', '53', '919491365', '3056795729', '022']","['2008 BS 7858: 2012 BS ISO 9001: 2015 BS ISO 10002', '44 207 4566740 CHESHIRE +44 1614 140010', '44 1865 807300 GLOUCESTERSHIRE +44 1453 791444', '33 1 82 888340 +33 1 53 531411', '41 22 5017275', '34 919491365', '49 3056795729', '1 212 4611950', '60 32772', '6862831', '828 083 022 00016']"
edgecumbe.co.uk,[],[],[],[],[],[],['2NT and company number 03033236']
samstransport.co.uk,[],[],[],[],[],[],['01788 571102']
presentations.co.uk,[],[],[],[],[],[],['01296 642000']
cornerfridge.com,"['', '', '']","['', '', '']","['', '', '']","['', '', '']","['1302', '1302', '1302']","['759308', '759308', '759308']","['44 1302 759308', '44(1302) 759308', '44 1302 759308']"
cotswoldcottageholidays.co.uk,"['', '', '']","['', '', '']","['', '', '']","['', '', '']","['834750', '834750', '1386']","['01386', '01386', '834750']","['07525813669 | General Enquiries 01386 834750', '07525813669 | General Enquiries: 01386 834750', '00 44 1386 834750']"
lodestar.org.uk,[''],[''],[''],[''],['reg'],['no. 5580575'],['9HB Company Reg No.: 5580575']
houseclearanceteam.co.uk,[''],[''],[''],[''],['964925'],['01273'],['01273 964925']
calderengineering.co.uk,[''],[''],[''],[''],['1847'],['892345'],"['2.7-1 and EN 12079', '7QU Tel: +44 (0)1847 892122', '44 (0)1847 892345']"
topmeadow.co.uk,"['', '', '', '', '']","['', '', '', '', '']","['', '', '', '', '']","['', '', '', '', '']","['859545', '852239', '852239', '859545', '859545']","['01708', '01708', '01708', '01708', '01708']","['01708 852239 - BOOK TEE TIME: 01708 859545', '01708 852239', '01708 852239', '3PR ProShop Contact Info 01708 859545', '01708 859545']"
djrmarketing.co.uk,[''],[''],[''],[''],['716869'],['01902'],"['01902 716869', '9LE\u200dT 01902']"
healys.com,[],[],[],[],[],[],['510079 Brighton: SRA No. 511205']
snugglebundl.co.uk,[''],['ga'],['midland'],['31820'],['chattsworth road'],['7701'],"['7701 Chattsworth Road, Midland, GA 31820']"
missionlimited.com,[],[],[],[],[],[],['8738643']
affordablecleaning.co.uk,[],[],[],[],[],[],['01179696476']
moderntyres.com,[],[],[],[],[],[],['09 February 2024 Modern Tyres Raises £25000']
surreywildlifetrust.org,[],[],[],[],[],[],['00645176']
porterfieldbrakes.co.uk,[''],[''],[''],['420500'],['5pt'],['01291'],['5PT 01291 420500']
motivationalleadership.co.uk,[],[],[],[],[],[],"['2AS, UK Company No: 06549299']"
surecps-group.com,[],[],[],[],[],[],"['44 1279 505514', '1.4301 or 1.4401 – DIN EN 10088', '44 1279 505514', '44 1279 505514']"
bill-medical.co.uk,[''],[''],[''],['01494'],['5ae'],[''],"['5AE 01494', '09954541']"
vegetarianexpress.co.uk,[],[],[],[],[],[],['7RY. Registered in England No 02793607']
ansaltd.com,[],[],[],[],[],[],['03545210']
porthavallen.co.uk,[''],[''],[''],[''],['812802'],['01726'],['01726 812802']
burrowfieldautos.com,[],[],[],[],[],[],"['1JQ, United Kingdom01707 393017, 01707']"
plus15.co.uk,[],[],[],[],[],[],['6PE 0844 9021600']
sgrcs.co.uk,"['', '', '', '']","['', '', '', '']","['', '', '', 'mob']","['22000', '22000', '17025', '07801']","['iso 13485 iso 14001 iso 45001 iso', 'iso 13485 iso 14001 iso 45001 iso', 'and iso', '686']","['9001', '9001', '27001', '622']","['9001, ISO 13485, ISO 14001, ISO 45001, ISO 22000', '9001, ISO 13485, ISO 14001, ISO 45001, ISO 22000', '27001 and ISO 17025', '6TN Tel: 01622 686 622 Mob: 07801']"
firstrate.co.uk,[],[],[],[],[],[],['04287490']
cakesuppliers.co.uk,[''],[''],[''],[''],['604'],['8416 / 01159'],['0845 604 8416 / 01159']
thorntonlodgenorthyorkshire.co.uk,[''],[''],[''],[''],['663375'],['3ap 01969'],['3AP 01969 663375']
northernirelandscreen.co.uk,[],[],[],[],[],[],['8ED Northern Ireland T: +44 (0)28 90 232444']
ericht.co.uk,[''],[''],[''],[''],['671405'],['07818'],"['07818671405', '07818 671405']"
exchequersolutions.co.uk,"['', '']","['', '']","['chester', 'us']","['ch1 1da01244', '01244']","['st john street', '']","['1', '']","['1 St John Street, Chester, CH1 1DA01244', '04749739', '1DACall us: 01244']"
peasholmecharity.org.uk,[''],[''],[''],[''],['466866'],['01904'],"['01904 466866', '701265. Company No. 2280503', '701265. Company No. 2280503', '701265. Company No. 2280503', '701265. Company No. 2280503']"
essexcommunityfoundation.org.uk,[],[],[],[],[],[],"['13 April 2024 Tel: 01245 355947', '1GU Tel: 01245 355947', '1052061.Company Number 3062567']"
